; ==== TEST PREMIERE COUCHE - 5 zones ====
; Genere par gen_calibration_gcode.py
; buse 215 C / plateau 60 C
; couche 0.2 mm / largeur 0.45 mm
; Objectif : verifier le Z offset ET le plan du plateau.
; Les 5 carres doivent avoir le meme aspect et la meme epaisseur.

M104 S175 ; prechauffe buse (sans attendre)
M190 S60 ; plateau et attente
G28
M109 S215 ; buse et attente
G90 ; positions absolues
M83 ; extrusion relative
G92 E0
M106 S102 ; ventilateur de couche 40%

SET_PRESSURE_ADVANCE ADVANCE=0 ; PA neutralise pour ce test

; --- ligne de purge ---
G1 Z2.20 F900
G1 X5.00 Y6.00 F6000
G1 Z0.200 F600
G1 E4 F300 ; amorcage
G1 X105.00 Y6.00 E5.2385 F1200
G1 Y6.45 E0.0236 F1200
G1 X5.00 Y6.45 E5.2385 F1500
G1 E-0.6 F2100 ; retract
G1 Z3.20 F900
G92 E0

G1 Z0.200 F600
; --- carre avant gauche ---
G1 X6.000 Y10.000 F6000
G1 E0.6 F300
G1 X31.000 Y10.000 E0.9354 F1200
G1 X31.000 Y35.000 E0.9354 F1200
G1 X6.000 Y35.000 E0.9354 F1200
G1 X6.000 Y10.000 E0.9354 F1200
G1 X6.450 Y10.450 F6000
G1 X30.550 E0.9018 F1500
G1 Y10.896 E0.0167 F1500
G1 X6.450 E0.9018 F1500
G1 Y11.343 E0.0167 F1500
G1 X30.550 E0.9018 F1500
G1 Y11.789 E0.0167 F1500
G1 X6.450 E0.9018 F1500
G1 Y12.235 E0.0167 F1500
G1 X30.550 E0.9018 F1500
G1 Y12.681 E0.0167 F1500
G1 X6.450 E0.9018 F1500
G1 Y13.128 E0.0167 F1500
G1 X30.550 E0.9018 F1500
G1 Y13.574 E0.0167 F1500
G1 X6.450 E0.9018 F1500
G1 Y14.020 E0.0167 F1500
G1 X30.550 E0.9018 F1500
G1 Y14.467 E0.0167 F1500
G1 X6.450 E0.9018 F1500
G1 Y14.913 E0.0167 F1500
G1 X30.550 E0.9018 F1500
G1 Y15.359 E0.0167 F1500
G1 X6.450 E0.9018 F1500
G1 Y15.806 E0.0167 F1500
G1 X30.550 E0.9018 F1500
G1 Y16.252 E0.0167 F1500
G1 X6.450 E0.9018 F1500
G1 Y16.698 E0.0167 F1500
G1 X30.550 E0.9018 F1500
G1 Y17.144 E0.0167 F1500
G1 X6.450 E0.9018 F1500
G1 Y17.591 E0.0167 F1500
G1 X30.550 E0.9018 F1500
G1 Y18.037 E0.0167 F1500
G1 X6.450 E0.9018 F1500
G1 Y18.483 E0.0167 F1500
G1 X30.550 E0.9018 F1500
G1 Y18.930 E0.0167 F1500
G1 X6.450 E0.9018 F1500
G1 Y19.376 E0.0167 F1500
G1 X30.550 E0.9018 F1500
G1 Y19.822 E0.0167 F1500
G1 X6.450 E0.9018 F1500
G1 Y20.269 E0.0167 F1500
G1 X30.550 E0.9018 F1500
G1 Y20.715 E0.0167 F1500
G1 X6.450 E0.9018 F1500
G1 Y21.161 E0.0167 F1500
G1 X30.550 E0.9018 F1500
G1 Y21.607 E0.0167 F1500
G1 X6.450 E0.9018 F1500
G1 Y22.054 E0.0167 F1500
G1 X30.550 E0.9018 F1500
G1 Y22.500 E0.0167 F1500
G1 X6.450 E0.9018 F1500
G1 Y22.946 E0.0167 F1500
G1 X30.550 E0.9018 F1500
G1 Y23.393 E0.0167 F1500
G1 X6.450 E0.9018 F1500
G1 Y23.839 E0.0167 F1500
G1 X30.550 E0.9018 F1500
G1 Y24.285 E0.0167 F1500
G1 X6.450 E0.9018 F1500
G1 Y24.731 E0.0167 F1500
G1 X30.550 E0.9018 F1500
G1 Y25.178 E0.0167 F1500
G1 X6.450 E0.9018 F1500
G1 Y25.624 E0.0167 F1500
G1 X30.550 E0.9018 F1500
G1 Y26.070 E0.0167 F1500
G1 X6.450 E0.9018 F1500
G1 Y26.517 E0.0167 F1500
G1 X30.550 E0.9018 F1500
G1 Y26.963 E0.0167 F1500
G1 X6.450 E0.9018 F1500
G1 Y27.409 E0.0167 F1500
G1 X30.550 E0.9018 F1500
G1 Y27.856 E0.0167 F1500
G1 X6.450 E0.9018 F1500
G1 Y28.302 E0.0167 F1500
G1 X30.550 E0.9018 F1500
G1 Y28.748 E0.0167 F1500
G1 X6.450 E0.9018 F1500
G1 Y29.194 E0.0167 F1500
G1 X30.550 E0.9018 F1500
G1 Y29.641 E0.0167 F1500
G1 X6.450 E0.9018 F1500
G1 Y30.087 E0.0167 F1500
G1 X30.550 E0.9018 F1500
G1 Y30.533 E0.0167 F1500
G1 X6.450 E0.9018 F1500
G1 Y30.980 E0.0167 F1500
G1 X30.550 E0.9018 F1500
G1 Y31.426 E0.0167 F1500
G1 X6.450 E0.9018 F1500
G1 Y31.872 E0.0167 F1500
G1 X30.550 E0.9018 F1500
G1 Y32.319 E0.0167 F1500
G1 X6.450 E0.9018 F1500
G1 Y32.765 E0.0167 F1500
G1 X30.550 E0.9018 F1500
G1 Y33.211 E0.0167 F1500
G1 X6.450 E0.9018 F1500
G1 Y33.657 E0.0167 F1500
G1 X30.550 E0.9018 F1500
G1 Y34.104 E0.0167 F1500
G1 X6.450 E0.9018 F1500
G1 Y34.550 E0.0167 F1500
G1 X30.550 E0.9018 F1500
G1 E-0.6 F2100
G1 Z1.20 F900
G1 Z0.200 F900

; --- carre avant droit ---
G1 X89.000 Y10.000 F6000
G1 E0.6 F300
G1 X114.000 Y10.000 E0.9354 F1200
G1 X114.000 Y35.000 E0.9354 F1200
G1 X89.000 Y35.000 E0.9354 F1200
G1 X89.000 Y10.000 E0.9354 F1200
G1 X89.450 Y10.450 F6000
G1 X113.550 E0.9018 F1500
G1 Y10.896 E0.0167 F1500
G1 X89.450 E0.9018 F1500
G1 Y11.343 E0.0167 F1500
G1 X113.550 E0.9018 F1500
G1 Y11.789 E0.0167 F1500
G1 X89.450 E0.9018 F1500
G1 Y12.235 E0.0167 F1500
G1 X113.550 E0.9018 F1500
G1 Y12.681 E0.0167 F1500
G1 X89.450 E0.9018 F1500
G1 Y13.128 E0.0167 F1500
G1 X113.550 E0.9018 F1500
G1 Y13.574 E0.0167 F1500
G1 X89.450 E0.9018 F1500
G1 Y14.020 E0.0167 F1500
G1 X113.550 E0.9018 F1500
G1 Y14.467 E0.0167 F1500
G1 X89.450 E0.9018 F1500
G1 Y14.913 E0.0167 F1500
G1 X113.550 E0.9018 F1500
G1 Y15.359 E0.0167 F1500
G1 X89.450 E0.9018 F1500
G1 Y15.806 E0.0167 F1500
G1 X113.550 E0.9018 F1500
G1 Y16.252 E0.0167 F1500
G1 X89.450 E0.9018 F1500
G1 Y16.698 E0.0167 F1500
G1 X113.550 E0.9018 F1500
G1 Y17.144 E0.0167 F1500
G1 X89.450 E0.9018 F1500
G1 Y17.591 E0.0167 F1500
G1 X113.550 E0.9018 F1500
G1 Y18.037 E0.0167 F1500
G1 X89.450 E0.9018 F1500
G1 Y18.483 E0.0167 F1500
G1 X113.550 E0.9018 F1500
G1 Y18.930 E0.0167 F1500
G1 X89.450 E0.9018 F1500
G1 Y19.376 E0.0167 F1500
G1 X113.550 E0.9018 F1500
G1 Y19.822 E0.0167 F1500
G1 X89.450 E0.9018 F1500
G1 Y20.269 E0.0167 F1500
G1 X113.550 E0.9018 F1500
G1 Y20.715 E0.0167 F1500
G1 X89.450 E0.9018 F1500
G1 Y21.161 E0.0167 F1500
G1 X113.550 E0.9018 F1500
G1 Y21.607 E0.0167 F1500
G1 X89.450 E0.9018 F1500
G1 Y22.054 E0.0167 F1500
G1 X113.550 E0.9018 F1500
G1 Y22.500 E0.0167 F1500
G1 X89.450 E0.9018 F1500
G1 Y22.946 E0.0167 F1500
G1 X113.550 E0.9018 F1500
G1 Y23.393 E0.0167 F1500
G1 X89.450 E0.9018 F1500
G1 Y23.839 E0.0167 F1500
G1 X113.550 E0.9018 F1500
G1 Y24.285 E0.0167 F1500
G1 X89.450 E0.9018 F1500
G1 Y24.731 E0.0167 F1500
G1 X113.550 E0.9018 F1500
G1 Y25.178 E0.0167 F1500
G1 X89.450 E0.9018 F1500
G1 Y25.624 E0.0167 F1500
G1 X113.550 E0.9018 F1500
G1 Y26.070 E0.0167 F1500
G1 X89.450 E0.9018 F1500
G1 Y26.517 E0.0167 F1500
G1 X113.550 E0.9018 F1500
G1 Y26.963 E0.0167 F1500
G1 X89.450 E0.9018 F1500
G1 Y27.409 E0.0167 F1500
G1 X113.550 E0.9018 F1500
G1 Y27.856 E0.0167 F1500
G1 X89.450 E0.9018 F1500
G1 Y28.302 E0.0167 F1500
G1 X113.550 E0.9018 F1500
G1 Y28.748 E0.0167 F1500
G1 X89.450 E0.9018 F1500
G1 Y29.194 E0.0167 F1500
G1 X113.550 E0.9018 F1500
G1 Y29.641 E0.0167 F1500
G1 X89.450 E0.9018 F1500
G1 Y30.087 E0.0167 F1500
G1 X113.550 E0.9018 F1500
G1 Y30.533 E0.0167 F1500
G1 X89.450 E0.9018 F1500
G1 Y30.980 E0.0167 F1500
G1 X113.550 E0.9018 F1500
G1 Y31.426 E0.0167 F1500
G1 X89.450 E0.9018 F1500
G1 Y31.872 E0.0167 F1500
G1 X113.550 E0.9018 F1500
G1 Y32.319 E0.0167 F1500
G1 X89.450 E0.9018 F1500
G1 Y32.765 E0.0167 F1500
G1 X113.550 E0.9018 F1500
G1 Y33.211 E0.0167 F1500
G1 X89.450 E0.9018 F1500
G1 Y33.657 E0.0167 F1500
G1 X113.550 E0.9018 F1500
G1 Y34.104 E0.0167 F1500
G1 X89.450 E0.9018 F1500
G1 Y34.550 E0.0167 F1500
G1 X113.550 E0.9018 F1500
G1 E-0.6 F2100
G1 Z1.20 F900
G1 Z0.200 F900

; --- carre arriere droit ---
G1 X89.000 Y89.000 F6000
G1 E0.6 F300
G1 X114.000 Y89.000 E0.9354 F1200
G1 X114.000 Y114.000 E0.9354 F1200
G1 X89.000 Y114.000 E0.9354 F1200
G1 X89.000 Y89.000 E0.9354 F1200
G1 X89.450 Y89.450 F6000
G1 X113.550 E0.9018 F1500
G1 Y89.896 E0.0167 F1500
G1 X89.450 E0.9018 F1500
G1 Y90.343 E0.0167 F1500
G1 X113.550 E0.9018 F1500
G1 Y90.789 E0.0167 F1500
G1 X89.450 E0.9018 F1500
G1 Y91.235 E0.0167 F1500
G1 X113.550 E0.9018 F1500
G1 Y91.681 E0.0167 F1500
G1 X89.450 E0.9018 F1500
G1 Y92.128 E0.0167 F1500
G1 X113.550 E0.9018 F1500
G1 Y92.574 E0.0167 F1500
G1 X89.450 E0.9018 F1500
G1 Y93.020 E0.0167 F1500
G1 X113.550 E0.9018 F1500
G1 Y93.467 E0.0167 F1500
G1 X89.450 E0.9018 F1500
G1 Y93.913 E0.0167 F1500
G1 X113.550 E0.9018 F1500
G1 Y94.359 E0.0167 F1500
G1 X89.450 E0.9018 F1500
G1 Y94.806 E0.0167 F1500
G1 X113.550 E0.9018 F1500
G1 Y95.252 E0.0167 F1500
G1 X89.450 E0.9018 F1500
G1 Y95.698 E0.0167 F1500
G1 X113.550 E0.9018 F1500
G1 Y96.144 E0.0167 F1500
G1 X89.450 E0.9018 F1500
G1 Y96.591 E0.0167 F1500
G1 X113.550 E0.9018 F1500
G1 Y97.037 E0.0167 F1500
G1 X89.450 E0.9018 F1500
G1 Y97.483 E0.0167 F1500
G1 X113.550 E0.9018 F1500
G1 Y97.930 E0.0167 F1500
G1 X89.450 E0.9018 F1500
G1 Y98.376 E0.0167 F1500
G1 X113.550 E0.9018 F1500
G1 Y98.822 E0.0167 F1500
G1 X89.450 E0.9018 F1500
G1 Y99.269 E0.0167 F1500
G1 X113.550 E0.9018 F1500
G1 Y99.715 E0.0167 F1500
G1 X89.450 E0.9018 F1500
G1 Y100.161 E0.0167 F1500
G1 X113.550 E0.9018 F1500
G1 Y100.607 E0.0167 F1500
G1 X89.450 E0.9018 F1500
G1 Y101.054 E0.0167 F1500
G1 X113.550 E0.9018 F1500
G1 Y101.500 E0.0167 F1500
G1 X89.450 E0.9018 F1500
G1 Y101.946 E0.0167 F1500
G1 X113.550 E0.9018 F1500
G1 Y102.393 E0.0167 F1500
G1 X89.450 E0.9018 F1500
G1 Y102.839 E0.0167 F1500
G1 X113.550 E0.9018 F1500
G1 Y103.285 E0.0167 F1500
G1 X89.450 E0.9018 F1500
G1 Y103.731 E0.0167 F1500
G1 X113.550 E0.9018 F1500
G1 Y104.178 E0.0167 F1500
G1 X89.450 E0.9018 F1500
G1 Y104.624 E0.0167 F1500
G1 X113.550 E0.9018 F1500
G1 Y105.070 E0.0167 F1500
G1 X89.450 E0.9018 F1500
G1 Y105.517 E0.0167 F1500
G1 X113.550 E0.9018 F1500
G1 Y105.963 E0.0167 F1500
G1 X89.450 E0.9018 F1500
G1 Y106.409 E0.0167 F1500
G1 X113.550 E0.9018 F1500
G1 Y106.856 E0.0167 F1500
G1 X89.450 E0.9018 F1500
G1 Y107.302 E0.0167 F1500
G1 X113.550 E0.9018 F1500
G1 Y107.748 E0.0167 F1500
G1 X89.450 E0.9018 F1500
G1 Y108.194 E0.0167 F1500
G1 X113.550 E0.9018 F1500
G1 Y108.641 E0.0167 F1500
G1 X89.450 E0.9018 F1500
G1 Y109.087 E0.0167 F1500
G1 X113.550 E0.9018 F1500
G1 Y109.533 E0.0167 F1500
G1 X89.450 E0.9018 F1500
G1 Y109.980 E0.0167 F1500
G1 X113.550 E0.9018 F1500
G1 Y110.426 E0.0167 F1500
G1 X89.450 E0.9018 F1500
G1 Y110.872 E0.0167 F1500
G1 X113.550 E0.9018 F1500
G1 Y111.319 E0.0167 F1500
G1 X89.450 E0.9018 F1500
G1 Y111.765 E0.0167 F1500
G1 X113.550 E0.9018 F1500
G1 Y112.211 E0.0167 F1500
G1 X89.450 E0.9018 F1500
G1 Y112.657 E0.0167 F1500
G1 X113.550 E0.9018 F1500
G1 Y113.104 E0.0167 F1500
G1 X89.450 E0.9018 F1500
G1 Y113.550 E0.0167 F1500
G1 X113.550 E0.9018 F1500
G1 E-0.6 F2100
G1 Z1.20 F900
G1 Z0.200 F900

; --- carre arriere gauche ---
G1 X6.000 Y89.000 F6000
G1 E0.6 F300
G1 X31.000 Y89.000 E0.9354 F1200
G1 X31.000 Y114.000 E0.9354 F1200
G1 X6.000 Y114.000 E0.9354 F1200
G1 X6.000 Y89.000 E0.9354 F1200
G1 X6.450 Y89.450 F6000
G1 X30.550 E0.9018 F1500
G1 Y89.896 E0.0167 F1500
G1 X6.450 E0.9018 F1500
G1 Y90.343 E0.0167 F1500
G1 X30.550 E0.9018 F1500
G1 Y90.789 E0.0167 F1500
G1 X6.450 E0.9018 F1500
G1 Y91.235 E0.0167 F1500
G1 X30.550 E0.9018 F1500
G1 Y91.681 E0.0167 F1500
G1 X6.450 E0.9018 F1500
G1 Y92.128 E0.0167 F1500
G1 X30.550 E0.9018 F1500
G1 Y92.574 E0.0167 F1500
G1 X6.450 E0.9018 F1500
G1 Y93.020 E0.0167 F1500
G1 X30.550 E0.9018 F1500
G1 Y93.467 E0.0167 F1500
G1 X6.450 E0.9018 F1500
G1 Y93.913 E0.0167 F1500
G1 X30.550 E0.9018 F1500
G1 Y94.359 E0.0167 F1500
G1 X6.450 E0.9018 F1500
G1 Y94.806 E0.0167 F1500
G1 X30.550 E0.9018 F1500
G1 Y95.252 E0.0167 F1500
G1 X6.450 E0.9018 F1500
G1 Y95.698 E0.0167 F1500
G1 X30.550 E0.9018 F1500
G1 Y96.144 E0.0167 F1500
G1 X6.450 E0.9018 F1500
G1 Y96.591 E0.0167 F1500
G1 X30.550 E0.9018 F1500
G1 Y97.037 E0.0167 F1500
G1 X6.450 E0.9018 F1500
G1 Y97.483 E0.0167 F1500
G1 X30.550 E0.9018 F1500
G1 Y97.930 E0.0167 F1500
G1 X6.450 E0.9018 F1500
G1 Y98.376 E0.0167 F1500
G1 X30.550 E0.9018 F1500
G1 Y98.822 E0.0167 F1500
G1 X6.450 E0.9018 F1500
G1 Y99.269 E0.0167 F1500
G1 X30.550 E0.9018 F1500
G1 Y99.715 E0.0167 F1500
G1 X6.450 E0.9018 F1500
G1 Y100.161 E0.0167 F1500
G1 X30.550 E0.9018 F1500
G1 Y100.607 E0.0167 F1500
G1 X6.450 E0.9018 F1500
G1 Y101.054 E0.0167 F1500
G1 X30.550 E0.9018 F1500
G1 Y101.500 E0.0167 F1500
G1 X6.450 E0.9018 F1500
G1 Y101.946 E0.0167 F1500
G1 X30.550 E0.9018 F1500
G1 Y102.393 E0.0167 F1500
G1 X6.450 E0.9018 F1500
G1 Y102.839 E0.0167 F1500
G1 X30.550 E0.9018 F1500
G1 Y103.285 E0.0167 F1500
G1 X6.450 E0.9018 F1500
G1 Y103.731 E0.0167 F1500
G1 X30.550 E0.9018 F1500
G1 Y104.178 E0.0167 F1500
G1 X6.450 E0.9018 F1500
G1 Y104.624 E0.0167 F1500
G1 X30.550 E0.9018 F1500
G1 Y105.070 E0.0167 F1500
G1 X6.450 E0.9018 F1500
G1 Y105.517 E0.0167 F1500
G1 X30.550 E0.9018 F1500
G1 Y105.963 E0.0167 F1500
G1 X6.450 E0.9018 F1500
G1 Y106.409 E0.0167 F1500
G1 X30.550 E0.9018 F1500
G1 Y106.856 E0.0167 F1500
G1 X6.450 E0.9018 F1500
G1 Y107.302 E0.0167 F1500
G1 X30.550 E0.9018 F1500
G1 Y107.748 E0.0167 F1500
G1 X6.450 E0.9018 F1500
G1 Y108.194 E0.0167 F1500
G1 X30.550 E0.9018 F1500
G1 Y108.641 E0.0167 F1500
G1 X6.450 E0.9018 F1500
G1 Y109.087 E0.0167 F1500
G1 X30.550 E0.9018 F1500
G1 Y109.533 E0.0167 F1500
G1 X6.450 E0.9018 F1500
G1 Y109.980 E0.0167 F1500
G1 X30.550 E0.9018 F1500
G1 Y110.426 E0.0167 F1500
G1 X6.450 E0.9018 F1500
G1 Y110.872 E0.0167 F1500
G1 X30.550 E0.9018 F1500
G1 Y111.319 E0.0167 F1500
G1 X6.450 E0.9018 F1500
G1 Y111.765 E0.0167 F1500
G1 X30.550 E0.9018 F1500
G1 Y112.211 E0.0167 F1500
G1 X6.450 E0.9018 F1500
G1 Y112.657 E0.0167 F1500
G1 X30.550 E0.9018 F1500
G1 Y113.104 E0.0167 F1500
G1 X6.450 E0.9018 F1500
G1 Y113.550 E0.0167 F1500
G1 X30.550 E0.9018 F1500
G1 E-0.6 F2100
G1 Z1.20 F900
G1 Z0.200 F900

; --- carre centre ---
G1 X47.500 Y49.500 F6000
G1 E0.6 F300
G1 X72.500 Y49.500 E0.9354 F1200
G1 X72.500 Y74.500 E0.9354 F1200
G1 X47.500 Y74.500 E0.9354 F1200
G1 X47.500 Y49.500 E0.9354 F1200
G1 X47.950 Y49.950 F6000
G1 X72.050 E0.9018 F1500
G1 Y50.396 E0.0167 F1500
G1 X47.950 E0.9018 F1500
G1 Y50.843 E0.0167 F1500
G1 X72.050 E0.9018 F1500
G1 Y51.289 E0.0167 F1500
G1 X47.950 E0.9018 F1500
G1 Y51.735 E0.0167 F1500
G1 X72.050 E0.9018 F1500
G1 Y52.181 E0.0167 F1500
G1 X47.950 E0.9018 F1500
G1 Y52.628 E0.0167 F1500
G1 X72.050 E0.9018 F1500
G1 Y53.074 E0.0167 F1500
G1 X47.950 E0.9018 F1500
G1 Y53.520 E0.0167 F1500
G1 X72.050 E0.9018 F1500
G1 Y53.967 E0.0167 F1500
G1 X47.950 E0.9018 F1500
G1 Y54.413 E0.0167 F1500
G1 X72.050 E0.9018 F1500
G1 Y54.859 E0.0167 F1500
G1 X47.950 E0.9018 F1500
G1 Y55.306 E0.0167 F1500
G1 X72.050 E0.9018 F1500
G1 Y55.752 E0.0167 F1500
G1 X47.950 E0.9018 F1500
G1 Y56.198 E0.0167 F1500
G1 X72.050 E0.9018 F1500
G1 Y56.644 E0.0167 F1500
G1 X47.950 E0.9018 F1500
G1 Y57.091 E0.0167 F1500
G1 X72.050 E0.9018 F1500
G1 Y57.537 E0.0167 F1500
G1 X47.950 E0.9018 F1500
G1 Y57.983 E0.0167 F1500
G1 X72.050 E0.9018 F1500
G1 Y58.430 E0.0167 F1500
G1 X47.950 E0.9018 F1500
G1 Y58.876 E0.0167 F1500
G1 X72.050 E0.9018 F1500
G1 Y59.322 E0.0167 F1500
G1 X47.950 E0.9018 F1500
G1 Y59.769 E0.0167 F1500
G1 X72.050 E0.9018 F1500
G1 Y60.215 E0.0167 F1500
G1 X47.950 E0.9018 F1500
G1 Y60.661 E0.0167 F1500
G1 X72.050 E0.9018 F1500
G1 Y61.107 E0.0167 F1500
G1 X47.950 E0.9018 F1500
G1 Y61.554 E0.0167 F1500
G1 X72.050 E0.9018 F1500
G1 Y62.000 E0.0167 F1500
G1 X47.950 E0.9018 F1500
G1 Y62.446 E0.0167 F1500
G1 X72.050 E0.9018 F1500
G1 Y62.893 E0.0167 F1500
G1 X47.950 E0.9018 F1500
G1 Y63.339 E0.0167 F1500
G1 X72.050 E0.9018 F1500
G1 Y63.785 E0.0167 F1500
G1 X47.950 E0.9018 F1500
G1 Y64.231 E0.0167 F1500
G1 X72.050 E0.9018 F1500
G1 Y64.678 E0.0167 F1500
G1 X47.950 E0.9018 F1500
G1 Y65.124 E0.0167 F1500
G1 X72.050 E0.9018 F1500
G1 Y65.570 E0.0167 F1500
G1 X47.950 E0.9018 F1500
G1 Y66.017 E0.0167 F1500
G1 X72.050 E0.9018 F1500
G1 Y66.463 E0.0167 F1500
G1 X47.950 E0.9018 F1500
G1 Y66.909 E0.0167 F1500
G1 X72.050 E0.9018 F1500
G1 Y67.356 E0.0167 F1500
G1 X47.950 E0.9018 F1500
G1 Y67.802 E0.0167 F1500
G1 X72.050 E0.9018 F1500
G1 Y68.248 E0.0167 F1500
G1 X47.950 E0.9018 F1500
G1 Y68.694 E0.0167 F1500
G1 X72.050 E0.9018 F1500
G1 Y69.141 E0.0167 F1500
G1 X47.950 E0.9018 F1500
G1 Y69.587 E0.0167 F1500
G1 X72.050 E0.9018 F1500
G1 Y70.033 E0.0167 F1500
G1 X47.950 E0.9018 F1500
G1 Y70.480 E0.0167 F1500
G1 X72.050 E0.9018 F1500
G1 Y70.926 E0.0167 F1500
G1 X47.950 E0.9018 F1500
G1 Y71.372 E0.0167 F1500
G1 X72.050 E0.9018 F1500
G1 Y71.819 E0.0167 F1500
G1 X47.950 E0.9018 F1500
G1 Y72.265 E0.0167 F1500
G1 X72.050 E0.9018 F1500
G1 Y72.711 E0.0167 F1500
G1 X47.950 E0.9018 F1500
G1 Y73.157 E0.0167 F1500
G1 X72.050 E0.9018 F1500
G1 Y73.604 E0.0167 F1500
G1 X47.950 E0.9018 F1500
G1 Y74.050 E0.0167 F1500
G1 X72.050 E0.9018 F1500
G1 E-0.6 F2100
G1 Z1.20 F900
G1 Z0.200 F900

; --- fin ---
G1 E-2 F2100
G1 Z40 F900 ; degage le plateau
M104 S0
M140 S0
M107
M84

