; ==== TEST RETRACTION - 2 tours ====
; Genere par gen_calibration_gcode.py
; buse 215 C / plateau 60 C
; couche 0.2 mm / largeur 0.45 mm
; Deux tours de 8 mm espacees de 30 mm, hauteur 25 mm.
; Le fil entre les tours revele le stringing.
; Modifier retract_length / retract_speed dans [firmware_retraction] entre deux essais.

M104 S175 ; prechauffe buse (sans attendre)
M190 S60 ; plateau et attente
G28
M109 S215 ; buse et attente
G90 ; positions absolues
M83 ; extrusion relative
G92 E0
M106 S102 ; ventilateur de couche 40%

; --- ligne de purge ---
G1 Z2.20 F900
G1 X5.00 Y6.00 F6000
G1 Z0.200 F600
G1 E4 F300 ; amorcage
G1 X105.00 Y6.00 E5.2385 F1200
G1 Y6.45 E0.0236 F1200
G1 X5.00 Y6.45 E5.2385 F1500
G1 E-0.6 F2100 ; retract
G1 Z3.20 F900
G92 E0

; --- couche 1 / 125 (Z=0.20) ---
G1 Z0.200 F900
G10 ; unretract gere par firmware_retraction
G1 X41.000 Y58.000 F9000
G11
G1 X49.000 Y58.000 E0.2993 F1500
G1 X49.000 Y66.000 E0.2993 F1500
G1 X41.000 Y66.000 E0.2993 F1500
G1 X41.000 Y58.000 E0.2993 F1500
G1 X48.550 Y58.450 E0.2657 F1500
G1 X48.550 Y65.550 E0.2657 F1500
G1 X41.450 Y65.550 E0.2657 F1500
G1 X41.450 Y58.450 E0.2657 F1500
G10
G10 ; unretract gere par firmware_retraction
G1 X71.000 Y58.000 F9000
G11
G1 X79.000 Y58.000 E0.2993 F1500
G1 X79.000 Y66.000 E0.2993 F1500
G1 X71.000 Y66.000 E0.2993 F1500
G1 X71.000 Y58.000 E0.2993 F1500
G1 X78.550 Y58.450 E0.2657 F1500
G1 X78.550 Y65.550 E0.2657 F1500
G1 X71.450 Y65.550 E0.2657 F1500
G1 X71.450 Y58.450 E0.2657 F1500
G10
; --- couche 2 / 125 (Z=0.40) ---
G1 Z0.400 F900
G10 ; unretract gere par firmware_retraction
G1 X41.000 Y58.000 F9000
G11
G1 X49.000 Y58.000 E0.2993 F1500
G1 X49.000 Y66.000 E0.2993 F1500
G1 X41.000 Y66.000 E0.2993 F1500
G1 X41.000 Y58.000 E0.2993 F1500
G1 X48.550 Y58.450 E0.2657 F1500
G1 X48.550 Y65.550 E0.2657 F1500
G1 X41.450 Y65.550 E0.2657 F1500
G1 X41.450 Y58.450 E0.2657 F1500
G10
G10 ; unretract gere par firmware_retraction
G1 X71.000 Y58.000 F9000
G11
G1 X79.000 Y58.000 E0.2993 F1500
G1 X79.000 Y66.000 E0.2993 F1500
G1 X71.000 Y66.000 E0.2993 F1500
G1 X71.000 Y58.000 E0.2993 F1500
G1 X78.550 Y58.450 E0.2657 F1500
G1 X78.550 Y65.550 E0.2657 F1500
G1 X71.450 Y65.550 E0.2657 F1500
G1 X71.450 Y58.450 E0.2657 F1500
G10
; --- couche 3 / 125 (Z=0.60) ---
G1 Z0.600 F900
G10 ; unretract gere par firmware_retraction
G1 X41.000 Y58.000 F9000
G11
G1 X49.000 Y58.000 E0.2993 F1500
G1 X49.000 Y66.000 E0.2993 F1500
G1 X41.000 Y66.000 E0.2993 F1500
G1 X41.000 Y58.000 E0.2993 F1500
G1 X48.550 Y58.450 E0.2657 F1500
G1 X48.550 Y65.550 E0.2657 F1500
G1 X41.450 Y65.550 E0.2657 F1500
G1 X41.450 Y58.450 E0.2657 F1500
G10
G10 ; unretract gere par firmware_retraction
G1 X71.000 Y58.000 F9000
G11
G1 X79.000 Y58.000 E0.2993 F1500
G1 X79.000 Y66.000 E0.2993 F1500
G1 X71.000 Y66.000 E0.2993 F1500
G1 X71.000 Y58.000 E0.2993 F1500
G1 X78.550 Y58.450 E0.2657 F1500
G1 X78.550 Y65.550 E0.2657 F1500
G1 X71.450 Y65.550 E0.2657 F1500
G1 X71.450 Y58.450 E0.2657 F1500
G10
; --- couche 4 / 125 (Z=0.80) ---
G1 Z0.800 F900
G10 ; unretract gere par firmware_retraction
G1 X41.000 Y58.000 F9000
G11
G1 X49.000 Y58.000 E0.2993 F1500
G1 X49.000 Y66.000 E0.2993 F1500
G1 X41.000 Y66.000 E0.2993 F1500
G1 X41.000 Y58.000 E0.2993 F1500
G1 X48.550 Y58.450 E0.2657 F1500
G1 X48.550 Y65.550 E0.2657 F1500
G1 X41.450 Y65.550 E0.2657 F1500
G1 X41.450 Y58.450 E0.2657 F1500
G10
G10 ; unretract gere par firmware_retraction
G1 X71.000 Y58.000 F9000
G11
G1 X79.000 Y58.000 E0.2993 F1500
G1 X79.000 Y66.000 E0.2993 F1500
G1 X71.000 Y66.000 E0.2993 F1500
G1 X71.000 Y58.000 E0.2993 F1500
G1 X78.550 Y58.450 E0.2657 F1500
G1 X78.550 Y65.550 E0.2657 F1500
G1 X71.450 Y65.550 E0.2657 F1500
G1 X71.450 Y58.450 E0.2657 F1500
G10
; --- couche 5 / 125 (Z=1.00) ---
G1 Z1.000 F900
G10 ; unretract gere par firmware_retraction
G1 X41.000 Y58.000 F9000
G11
G1 X49.000 Y58.000 E0.2993 F1500
G1 X49.000 Y66.000 E0.2993 F1500
G1 X41.000 Y66.000 E0.2993 F1500
G1 X41.000 Y58.000 E0.2993 F1500
G1 X48.550 Y58.450 E0.2657 F1500
G1 X48.550 Y65.550 E0.2657 F1500
G1 X41.450 Y65.550 E0.2657 F1500
G1 X41.450 Y58.450 E0.2657 F1500
G10
G10 ; unretract gere par firmware_retraction
G1 X71.000 Y58.000 F9000
G11
G1 X79.000 Y58.000 E0.2993 F1500
G1 X79.000 Y66.000 E0.2993 F1500
G1 X71.000 Y66.000 E0.2993 F1500
G1 X71.000 Y58.000 E0.2993 F1500
G1 X78.550 Y58.450 E0.2657 F1500
G1 X78.550 Y65.550 E0.2657 F1500
G1 X71.450 Y65.550 E0.2657 F1500
G1 X71.450 Y58.450 E0.2657 F1500
G10
; --- couche 6 / 125 (Z=1.20) ---
G1 Z1.200 F900
G10 ; unretract gere par firmware_retraction
G1 X41.000 Y58.000 F9000
G11
G1 X49.000 Y58.000 E0.2993 F1500
G1 X49.000 Y66.000 E0.2993 F1500
G1 X41.000 Y66.000 E0.2993 F1500
G1 X41.000 Y58.000 E0.2993 F1500
G1 X48.550 Y58.450 E0.2657 F1500
G1 X48.550 Y65.550 E0.2657 F1500
G1 X41.450 Y65.550 E0.2657 F1500
G1 X41.450 Y58.450 E0.2657 F1500
G10
G10 ; unretract gere par firmware_retraction
G1 X71.000 Y58.000 F9000
G11
G1 X79.000 Y58.000 E0.2993 F1500
G1 X79.000 Y66.000 E0.2993 F1500
G1 X71.000 Y66.000 E0.2993 F1500
G1 X71.000 Y58.000 E0.2993 F1500
G1 X78.550 Y58.450 E0.2657 F1500
G1 X78.550 Y65.550 E0.2657 F1500
G1 X71.450 Y65.550 E0.2657 F1500
G1 X71.450 Y58.450 E0.2657 F1500
G10
; --- couche 7 / 125 (Z=1.40) ---
G1 Z1.400 F900
G10 ; unretract gere par firmware_retraction
G1 X41.000 Y58.000 F9000
G11
G1 X49.000 Y58.000 E0.2993 F1500
G1 X49.000 Y66.000 E0.2993 F1500
G1 X41.000 Y66.000 E0.2993 F1500
G1 X41.000 Y58.000 E0.2993 F1500
G1 X48.550 Y58.450 E0.2657 F1500
G1 X48.550 Y65.550 E0.2657 F1500
G1 X41.450 Y65.550 E0.2657 F1500
G1 X41.450 Y58.450 E0.2657 F1500
G10
G10 ; unretract gere par firmware_retraction
G1 X71.000 Y58.000 F9000
G11
G1 X79.000 Y58.000 E0.2993 F1500
G1 X79.000 Y66.000 E0.2993 F1500
G1 X71.000 Y66.000 E0.2993 F1500
G1 X71.000 Y58.000 E0.2993 F1500
G1 X78.550 Y58.450 E0.2657 F1500
G1 X78.550 Y65.550 E0.2657 F1500
G1 X71.450 Y65.550 E0.2657 F1500
G1 X71.450 Y58.450 E0.2657 F1500
G10
; --- couche 8 / 125 (Z=1.60) ---
G1 Z1.600 F900
G10 ; unretract gere par firmware_retraction
G1 X41.000 Y58.000 F9000
G11
G1 X49.000 Y58.000 E0.2993 F1500
G1 X49.000 Y66.000 E0.2993 F1500
G1 X41.000 Y66.000 E0.2993 F1500
G1 X41.000 Y58.000 E0.2993 F1500
G1 X48.550 Y58.450 E0.2657 F1500
G1 X48.550 Y65.550 E0.2657 F1500
G1 X41.450 Y65.550 E0.2657 F1500
G1 X41.450 Y58.450 E0.2657 F1500
G10
G10 ; unretract gere par firmware_retraction
G1 X71.000 Y58.000 F9000
G11
G1 X79.000 Y58.000 E0.2993 F1500
G1 X79.000 Y66.000 E0.2993 F1500
G1 X71.000 Y66.000 E0.2993 F1500
G1 X71.000 Y58.000 E0.2993 F1500
G1 X78.550 Y58.450 E0.2657 F1500
G1 X78.550 Y65.550 E0.2657 F1500
G1 X71.450 Y65.550 E0.2657 F1500
G1 X71.450 Y58.450 E0.2657 F1500
G10
; --- couche 9 / 125 (Z=1.80) ---
G1 Z1.800 F900
G10 ; unretract gere par firmware_retraction
G1 X41.000 Y58.000 F9000
G11
G1 X49.000 Y58.000 E0.2993 F1500
G1 X49.000 Y66.000 E0.2993 F1500
G1 X41.000 Y66.000 E0.2993 F1500
G1 X41.000 Y58.000 E0.2993 F1500
G1 X48.550 Y58.450 E0.2657 F1500
G1 X48.550 Y65.550 E0.2657 F1500
G1 X41.450 Y65.550 E0.2657 F1500
G1 X41.450 Y58.450 E0.2657 F1500
G10
G10 ; unretract gere par firmware_retraction
G1 X71.000 Y58.000 F9000
G11
G1 X79.000 Y58.000 E0.2993 F1500
G1 X79.000 Y66.000 E0.2993 F1500
G1 X71.000 Y66.000 E0.2993 F1500
G1 X71.000 Y58.000 E0.2993 F1500
G1 X78.550 Y58.450 E0.2657 F1500
G1 X78.550 Y65.550 E0.2657 F1500
G1 X71.450 Y65.550 E0.2657 F1500
G1 X71.450 Y58.450 E0.2657 F1500
G10
; --- couche 10 / 125 (Z=2.00) ---
G1 Z2.000 F900
G10 ; unretract gere par firmware_retraction
G1 X41.000 Y58.000 F9000
G11
G1 X49.000 Y58.000 E0.2993 F1500
G1 X49.000 Y66.000 E0.2993 F1500
G1 X41.000 Y66.000 E0.2993 F1500
G1 X41.000 Y58.000 E0.2993 F1500
G1 X48.550 Y58.450 E0.2657 F1500
G1 X48.550 Y65.550 E0.2657 F1500
G1 X41.450 Y65.550 E0.2657 F1500
G1 X41.450 Y58.450 E0.2657 F1500
G10
G10 ; unretract gere par firmware_retraction
G1 X71.000 Y58.000 F9000
G11
G1 X79.000 Y58.000 E0.2993 F1500
G1 X79.000 Y66.000 E0.2993 F1500
G1 X71.000 Y66.000 E0.2993 F1500
G1 X71.000 Y58.000 E0.2993 F1500
G1 X78.550 Y58.450 E0.2657 F1500
G1 X78.550 Y65.550 E0.2657 F1500
G1 X71.450 Y65.550 E0.2657 F1500
G1 X71.450 Y58.450 E0.2657 F1500
G10
; --- couche 11 / 125 (Z=2.20) ---
G1 Z2.200 F900
G10 ; unretract gere par firmware_retraction
G1 X41.000 Y58.000 F9000
G11
G1 X49.000 Y58.000 E0.2993 F1500
G1 X49.000 Y66.000 E0.2993 F1500
G1 X41.000 Y66.000 E0.2993 F1500
G1 X41.000 Y58.000 E0.2993 F1500
G1 X48.550 Y58.450 E0.2657 F1500
G1 X48.550 Y65.550 E0.2657 F1500
G1 X41.450 Y65.550 E0.2657 F1500
G1 X41.450 Y58.450 E0.2657 F1500
G10
G10 ; unretract gere par firmware_retraction
G1 X71.000 Y58.000 F9000
G11
G1 X79.000 Y58.000 E0.2993 F1500
G1 X79.000 Y66.000 E0.2993 F1500
G1 X71.000 Y66.000 E0.2993 F1500
G1 X71.000 Y58.000 E0.2993 F1500
G1 X78.550 Y58.450 E0.2657 F1500
G1 X78.550 Y65.550 E0.2657 F1500
G1 X71.450 Y65.550 E0.2657 F1500
G1 X71.450 Y58.450 E0.2657 F1500
G10
; --- couche 12 / 125 (Z=2.40) ---
G1 Z2.400 F900
G10 ; unretract gere par firmware_retraction
G1 X41.000 Y58.000 F9000
G11
G1 X49.000 Y58.000 E0.2993 F1500
G1 X49.000 Y66.000 E0.2993 F1500
G1 X41.000 Y66.000 E0.2993 F1500
G1 X41.000 Y58.000 E0.2993 F1500
G1 X48.550 Y58.450 E0.2657 F1500
G1 X48.550 Y65.550 E0.2657 F1500
G1 X41.450 Y65.550 E0.2657 F1500
G1 X41.450 Y58.450 E0.2657 F1500
G10
G10 ; unretract gere par firmware_retraction
G1 X71.000 Y58.000 F9000
G11
G1 X79.000 Y58.000 E0.2993 F1500
G1 X79.000 Y66.000 E0.2993 F1500
G1 X71.000 Y66.000 E0.2993 F1500
G1 X71.000 Y58.000 E0.2993 F1500
G1 X78.550 Y58.450 E0.2657 F1500
G1 X78.550 Y65.550 E0.2657 F1500
G1 X71.450 Y65.550 E0.2657 F1500
G1 X71.450 Y58.450 E0.2657 F1500
G10
; --- couche 13 / 125 (Z=2.60) ---
G1 Z2.600 F900
G10 ; unretract gere par firmware_retraction
G1 X41.000 Y58.000 F9000
G11
G1 X49.000 Y58.000 E0.2993 F1500
G1 X49.000 Y66.000 E0.2993 F1500
G1 X41.000 Y66.000 E0.2993 F1500
G1 X41.000 Y58.000 E0.2993 F1500
G1 X48.550 Y58.450 E0.2657 F1500
G1 X48.550 Y65.550 E0.2657 F1500
G1 X41.450 Y65.550 E0.2657 F1500
G1 X41.450 Y58.450 E0.2657 F1500
G10
G10 ; unretract gere par firmware_retraction
G1 X71.000 Y58.000 F9000
G11
G1 X79.000 Y58.000 E0.2993 F1500
G1 X79.000 Y66.000 E0.2993 F1500
G1 X71.000 Y66.000 E0.2993 F1500
G1 X71.000 Y58.000 E0.2993 F1500
G1 X78.550 Y58.450 E0.2657 F1500
G1 X78.550 Y65.550 E0.2657 F1500
G1 X71.450 Y65.550 E0.2657 F1500
G1 X71.450 Y58.450 E0.2657 F1500
G10
; --- couche 14 / 125 (Z=2.80) ---
G1 Z2.800 F900
G10 ; unretract gere par firmware_retraction
G1 X41.000 Y58.000 F9000
G11
G1 X49.000 Y58.000 E0.2993 F1500
G1 X49.000 Y66.000 E0.2993 F1500
G1 X41.000 Y66.000 E0.2993 F1500
G1 X41.000 Y58.000 E0.2993 F1500
G1 X48.550 Y58.450 E0.2657 F1500
G1 X48.550 Y65.550 E0.2657 F1500
G1 X41.450 Y65.550 E0.2657 F1500
G1 X41.450 Y58.450 E0.2657 F1500
G10
G10 ; unretract gere par firmware_retraction
G1 X71.000 Y58.000 F9000
G11
G1 X79.000 Y58.000 E0.2993 F1500
G1 X79.000 Y66.000 E0.2993 F1500
G1 X71.000 Y66.000 E0.2993 F1500
G1 X71.000 Y58.000 E0.2993 F1500
G1 X78.550 Y58.450 E0.2657 F1500
G1 X78.550 Y65.550 E0.2657 F1500
G1 X71.450 Y65.550 E0.2657 F1500
G1 X71.450 Y58.450 E0.2657 F1500
G10
; --- couche 15 / 125 (Z=3.00) ---
G1 Z3.000 F900
G10 ; unretract gere par firmware_retraction
G1 X41.000 Y58.000 F9000
G11
G1 X49.000 Y58.000 E0.2993 F1500
G1 X49.000 Y66.000 E0.2993 F1500
G1 X41.000 Y66.000 E0.2993 F1500
G1 X41.000 Y58.000 E0.2993 F1500
G1 X48.550 Y58.450 E0.2657 F1500
G1 X48.550 Y65.550 E0.2657 F1500
G1 X41.450 Y65.550 E0.2657 F1500
G1 X41.450 Y58.450 E0.2657 F1500
G10
G10 ; unretract gere par firmware_retraction
G1 X71.000 Y58.000 F9000
G11
G1 X79.000 Y58.000 E0.2993 F1500
G1 X79.000 Y66.000 E0.2993 F1500
G1 X71.000 Y66.000 E0.2993 F1500
G1 X71.000 Y58.000 E0.2993 F1500
G1 X78.550 Y58.450 E0.2657 F1500
G1 X78.550 Y65.550 E0.2657 F1500
G1 X71.450 Y65.550 E0.2657 F1500
G1 X71.450 Y58.450 E0.2657 F1500
G10
; --- couche 16 / 125 (Z=3.20) ---
G1 Z3.200 F900
G10 ; unretract gere par firmware_retraction
G1 X41.000 Y58.000 F9000
G11
G1 X49.000 Y58.000 E0.2993 F1500
G1 X49.000 Y66.000 E0.2993 F1500
G1 X41.000 Y66.000 E0.2993 F1500
G1 X41.000 Y58.000 E0.2993 F1500
G1 X48.550 Y58.450 E0.2657 F1500
G1 X48.550 Y65.550 E0.2657 F1500
G1 X41.450 Y65.550 E0.2657 F1500
G1 X41.450 Y58.450 E0.2657 F1500
G10
G10 ; unretract gere par firmware_retraction
G1 X71.000 Y58.000 F9000
G11
G1 X79.000 Y58.000 E0.2993 F1500
G1 X79.000 Y66.000 E0.2993 F1500
G1 X71.000 Y66.000 E0.2993 F1500
G1 X71.000 Y58.000 E0.2993 F1500
G1 X78.550 Y58.450 E0.2657 F1500
G1 X78.550 Y65.550 E0.2657 F1500
G1 X71.450 Y65.550 E0.2657 F1500
G1 X71.450 Y58.450 E0.2657 F1500
G10
; --- couche 17 / 125 (Z=3.40) ---
G1 Z3.400 F900
G10 ; unretract gere par firmware_retraction
G1 X41.000 Y58.000 F9000
G11
G1 X49.000 Y58.000 E0.2993 F1500
G1 X49.000 Y66.000 E0.2993 F1500
G1 X41.000 Y66.000 E0.2993 F1500
G1 X41.000 Y58.000 E0.2993 F1500
G1 X48.550 Y58.450 E0.2657 F1500
G1 X48.550 Y65.550 E0.2657 F1500
G1 X41.450 Y65.550 E0.2657 F1500
G1 X41.450 Y58.450 E0.2657 F1500
G10
G10 ; unretract gere par firmware_retraction
G1 X71.000 Y58.000 F9000
G11
G1 X79.000 Y58.000 E0.2993 F1500
G1 X79.000 Y66.000 E0.2993 F1500
G1 X71.000 Y66.000 E0.2993 F1500
G1 X71.000 Y58.000 E0.2993 F1500
G1 X78.550 Y58.450 E0.2657 F1500
G1 X78.550 Y65.550 E0.2657 F1500
G1 X71.450 Y65.550 E0.2657 F1500
G1 X71.450 Y58.450 E0.2657 F1500
G10
; --- couche 18 / 125 (Z=3.60) ---
G1 Z3.600 F900
G10 ; unretract gere par firmware_retraction
G1 X41.000 Y58.000 F9000
G11
G1 X49.000 Y58.000 E0.2993 F1500
G1 X49.000 Y66.000 E0.2993 F1500
G1 X41.000 Y66.000 E0.2993 F1500
G1 X41.000 Y58.000 E0.2993 F1500
G1 X48.550 Y58.450 E0.2657 F1500
G1 X48.550 Y65.550 E0.2657 F1500
G1 X41.450 Y65.550 E0.2657 F1500
G1 X41.450 Y58.450 E0.2657 F1500
G10
G10 ; unretract gere par firmware_retraction
G1 X71.000 Y58.000 F9000
G11
G1 X79.000 Y58.000 E0.2993 F1500
G1 X79.000 Y66.000 E0.2993 F1500
G1 X71.000 Y66.000 E0.2993 F1500
G1 X71.000 Y58.000 E0.2993 F1500
G1 X78.550 Y58.450 E0.2657 F1500
G1 X78.550 Y65.550 E0.2657 F1500
G1 X71.450 Y65.550 E0.2657 F1500
G1 X71.450 Y58.450 E0.2657 F1500
G10
; --- couche 19 / 125 (Z=3.80) ---
G1 Z3.800 F900
G10 ; unretract gere par firmware_retraction
G1 X41.000 Y58.000 F9000
G11
G1 X49.000 Y58.000 E0.2993 F1500
G1 X49.000 Y66.000 E0.2993 F1500
G1 X41.000 Y66.000 E0.2993 F1500
G1 X41.000 Y58.000 E0.2993 F1500
G1 X48.550 Y58.450 E0.2657 F1500
G1 X48.550 Y65.550 E0.2657 F1500
G1 X41.450 Y65.550 E0.2657 F1500
G1 X41.450 Y58.450 E0.2657 F1500
G10
G10 ; unretract gere par firmware_retraction
G1 X71.000 Y58.000 F9000
G11
G1 X79.000 Y58.000 E0.2993 F1500
G1 X79.000 Y66.000 E0.2993 F1500
G1 X71.000 Y66.000 E0.2993 F1500
G1 X71.000 Y58.000 E0.2993 F1500
G1 X78.550 Y58.450 E0.2657 F1500
G1 X78.550 Y65.550 E0.2657 F1500
G1 X71.450 Y65.550 E0.2657 F1500
G1 X71.450 Y58.450 E0.2657 F1500
G10
; --- couche 20 / 125 (Z=4.00) ---
G1 Z4.000 F900
G10 ; unretract gere par firmware_retraction
G1 X41.000 Y58.000 F9000
G11
G1 X49.000 Y58.000 E0.2993 F1500
G1 X49.000 Y66.000 E0.2993 F1500
G1 X41.000 Y66.000 E0.2993 F1500
G1 X41.000 Y58.000 E0.2993 F1500
G1 X48.550 Y58.450 E0.2657 F1500
G1 X48.550 Y65.550 E0.2657 F1500
G1 X41.450 Y65.550 E0.2657 F1500
G1 X41.450 Y58.450 E0.2657 F1500
G10
G10 ; unretract gere par firmware_retraction
G1 X71.000 Y58.000 F9000
G11
G1 X79.000 Y58.000 E0.2993 F1500
G1 X79.000 Y66.000 E0.2993 F1500
G1 X71.000 Y66.000 E0.2993 F1500
G1 X71.000 Y58.000 E0.2993 F1500
G1 X78.550 Y58.450 E0.2657 F1500
G1 X78.550 Y65.550 E0.2657 F1500
G1 X71.450 Y65.550 E0.2657 F1500
G1 X71.450 Y58.450 E0.2657 F1500
G10
; --- couche 21 / 125 (Z=4.20) ---
G1 Z4.200 F900
G10 ; unretract gere par firmware_retraction
G1 X41.000 Y58.000 F9000
G11
G1 X49.000 Y58.000 E0.2993 F1500
G1 X49.000 Y66.000 E0.2993 F1500
G1 X41.000 Y66.000 E0.2993 F1500
G1 X41.000 Y58.000 E0.2993 F1500
G1 X48.550 Y58.450 E0.2657 F1500
G1 X48.550 Y65.550 E0.2657 F1500
G1 X41.450 Y65.550 E0.2657 F1500
G1 X41.450 Y58.450 E0.2657 F1500
G10
G10 ; unretract gere par firmware_retraction
G1 X71.000 Y58.000 F9000
G11
G1 X79.000 Y58.000 E0.2993 F1500
G1 X79.000 Y66.000 E0.2993 F1500
G1 X71.000 Y66.000 E0.2993 F1500
G1 X71.000 Y58.000 E0.2993 F1500
G1 X78.550 Y58.450 E0.2657 F1500
G1 X78.550 Y65.550 E0.2657 F1500
G1 X71.450 Y65.550 E0.2657 F1500
G1 X71.450 Y58.450 E0.2657 F1500
G10
; --- couche 22 / 125 (Z=4.40) ---
G1 Z4.400 F900
G10 ; unretract gere par firmware_retraction
G1 X41.000 Y58.000 F9000
G11
G1 X49.000 Y58.000 E0.2993 F1500
G1 X49.000 Y66.000 E0.2993 F1500
G1 X41.000 Y66.000 E0.2993 F1500
G1 X41.000 Y58.000 E0.2993 F1500
G1 X48.550 Y58.450 E0.2657 F1500
G1 X48.550 Y65.550 E0.2657 F1500
G1 X41.450 Y65.550 E0.2657 F1500
G1 X41.450 Y58.450 E0.2657 F1500
G10
G10 ; unretract gere par firmware_retraction
G1 X71.000 Y58.000 F9000
G11
G1 X79.000 Y58.000 E0.2993 F1500
G1 X79.000 Y66.000 E0.2993 F1500
G1 X71.000 Y66.000 E0.2993 F1500
G1 X71.000 Y58.000 E0.2993 F1500
G1 X78.550 Y58.450 E0.2657 F1500
G1 X78.550 Y65.550 E0.2657 F1500
G1 X71.450 Y65.550 E0.2657 F1500
G1 X71.450 Y58.450 E0.2657 F1500
G10
; --- couche 23 / 125 (Z=4.60) ---
G1 Z4.600 F900
G10 ; unretract gere par firmware_retraction
G1 X41.000 Y58.000 F9000
G11
G1 X49.000 Y58.000 E0.2993 F1500
G1 X49.000 Y66.000 E0.2993 F1500
G1 X41.000 Y66.000 E0.2993 F1500
G1 X41.000 Y58.000 E0.2993 F1500
G1 X48.550 Y58.450 E0.2657 F1500
G1 X48.550 Y65.550 E0.2657 F1500
G1 X41.450 Y65.550 E0.2657 F1500
G1 X41.450 Y58.450 E0.2657 F1500
G10
G10 ; unretract gere par firmware_retraction
G1 X71.000 Y58.000 F9000
G11
G1 X79.000 Y58.000 E0.2993 F1500
G1 X79.000 Y66.000 E0.2993 F1500
G1 X71.000 Y66.000 E0.2993 F1500
G1 X71.000 Y58.000 E0.2993 F1500
G1 X78.550 Y58.450 E0.2657 F1500
G1 X78.550 Y65.550 E0.2657 F1500
G1 X71.450 Y65.550 E0.2657 F1500
G1 X71.450 Y58.450 E0.2657 F1500
G10
; --- couche 24 / 125 (Z=4.80) ---
G1 Z4.800 F900
G10 ; unretract gere par firmware_retraction
G1 X41.000 Y58.000 F9000
G11
G1 X49.000 Y58.000 E0.2993 F1500
G1 X49.000 Y66.000 E0.2993 F1500
G1 X41.000 Y66.000 E0.2993 F1500
G1 X41.000 Y58.000 E0.2993 F1500
G1 X48.550 Y58.450 E0.2657 F1500
G1 X48.550 Y65.550 E0.2657 F1500
G1 X41.450 Y65.550 E0.2657 F1500
G1 X41.450 Y58.450 E0.2657 F1500
G10
G10 ; unretract gere par firmware_retraction
G1 X71.000 Y58.000 F9000
G11
G1 X79.000 Y58.000 E0.2993 F1500
G1 X79.000 Y66.000 E0.2993 F1500
G1 X71.000 Y66.000 E0.2993 F1500
G1 X71.000 Y58.000 E0.2993 F1500
G1 X78.550 Y58.450 E0.2657 F1500
G1 X78.550 Y65.550 E0.2657 F1500
G1 X71.450 Y65.550 E0.2657 F1500
G1 X71.450 Y58.450 E0.2657 F1500
G10
; --- couche 25 / 125 (Z=5.00) ---
G1 Z5.000 F900
G10 ; unretract gere par firmware_retraction
G1 X41.000 Y58.000 F9000
G11
G1 X49.000 Y58.000 E0.2993 F1500
G1 X49.000 Y66.000 E0.2993 F1500
G1 X41.000 Y66.000 E0.2993 F1500
G1 X41.000 Y58.000 E0.2993 F1500
G1 X48.550 Y58.450 E0.2657 F1500
G1 X48.550 Y65.550 E0.2657 F1500
G1 X41.450 Y65.550 E0.2657 F1500
G1 X41.450 Y58.450 E0.2657 F1500
G10
G10 ; unretract gere par firmware_retraction
G1 X71.000 Y58.000 F9000
G11
G1 X79.000 Y58.000 E0.2993 F1500
G1 X79.000 Y66.000 E0.2993 F1500
G1 X71.000 Y66.000 E0.2993 F1500
G1 X71.000 Y58.000 E0.2993 F1500
G1 X78.550 Y58.450 E0.2657 F1500
G1 X78.550 Y65.550 E0.2657 F1500
G1 X71.450 Y65.550 E0.2657 F1500
G1 X71.450 Y58.450 E0.2657 F1500
G10
; --- couche 26 / 125 (Z=5.20) ---
G1 Z5.200 F900
G10 ; unretract gere par firmware_retraction
G1 X41.000 Y58.000 F9000
G11
G1 X49.000 Y58.000 E0.2993 F1500
G1 X49.000 Y66.000 E0.2993 F1500
G1 X41.000 Y66.000 E0.2993 F1500
G1 X41.000 Y58.000 E0.2993 F1500
G1 X48.550 Y58.450 E0.2657 F1500
G1 X48.550 Y65.550 E0.2657 F1500
G1 X41.450 Y65.550 E0.2657 F1500
G1 X41.450 Y58.450 E0.2657 F1500
G10
G10 ; unretract gere par firmware_retraction
G1 X71.000 Y58.000 F9000
G11
G1 X79.000 Y58.000 E0.2993 F1500
G1 X79.000 Y66.000 E0.2993 F1500
G1 X71.000 Y66.000 E0.2993 F1500
G1 X71.000 Y58.000 E0.2993 F1500
G1 X78.550 Y58.450 E0.2657 F1500
G1 X78.550 Y65.550 E0.2657 F1500
G1 X71.450 Y65.550 E0.2657 F1500
G1 X71.450 Y58.450 E0.2657 F1500
G10
; --- couche 27 / 125 (Z=5.40) ---
G1 Z5.400 F900
G10 ; unretract gere par firmware_retraction
G1 X41.000 Y58.000 F9000
G11
G1 X49.000 Y58.000 E0.2993 F1500
G1 X49.000 Y66.000 E0.2993 F1500
G1 X41.000 Y66.000 E0.2993 F1500
G1 X41.000 Y58.000 E0.2993 F1500
G1 X48.550 Y58.450 E0.2657 F1500
G1 X48.550 Y65.550 E0.2657 F1500
G1 X41.450 Y65.550 E0.2657 F1500
G1 X41.450 Y58.450 E0.2657 F1500
G10
G10 ; unretract gere par firmware_retraction
G1 X71.000 Y58.000 F9000
G11
G1 X79.000 Y58.000 E0.2993 F1500
G1 X79.000 Y66.000 E0.2993 F1500
G1 X71.000 Y66.000 E0.2993 F1500
G1 X71.000 Y58.000 E0.2993 F1500
G1 X78.550 Y58.450 E0.2657 F1500
G1 X78.550 Y65.550 E0.2657 F1500
G1 X71.450 Y65.550 E0.2657 F1500
G1 X71.450 Y58.450 E0.2657 F1500
G10
; --- couche 28 / 125 (Z=5.60) ---
G1 Z5.600 F900
G10 ; unretract gere par firmware_retraction
G1 X41.000 Y58.000 F9000
G11
G1 X49.000 Y58.000 E0.2993 F1500
G1 X49.000 Y66.000 E0.2993 F1500
G1 X41.000 Y66.000 E0.2993 F1500
G1 X41.000 Y58.000 E0.2993 F1500
G1 X48.550 Y58.450 E0.2657 F1500
G1 X48.550 Y65.550 E0.2657 F1500
G1 X41.450 Y65.550 E0.2657 F1500
G1 X41.450 Y58.450 E0.2657 F1500
G10
G10 ; unretract gere par firmware_retraction
G1 X71.000 Y58.000 F9000
G11
G1 X79.000 Y58.000 E0.2993 F1500
G1 X79.000 Y66.000 E0.2993 F1500
G1 X71.000 Y66.000 E0.2993 F1500
G1 X71.000 Y58.000 E0.2993 F1500
G1 X78.550 Y58.450 E0.2657 F1500
G1 X78.550 Y65.550 E0.2657 F1500
G1 X71.450 Y65.550 E0.2657 F1500
G1 X71.450 Y58.450 E0.2657 F1500
G10
; --- couche 29 / 125 (Z=5.80) ---
G1 Z5.800 F900
G10 ; unretract gere par firmware_retraction
G1 X41.000 Y58.000 F9000
G11
G1 X49.000 Y58.000 E0.2993 F1500
G1 X49.000 Y66.000 E0.2993 F1500
G1 X41.000 Y66.000 E0.2993 F1500
G1 X41.000 Y58.000 E0.2993 F1500
G1 X48.550 Y58.450 E0.2657 F1500
G1 X48.550 Y65.550 E0.2657 F1500
G1 X41.450 Y65.550 E0.2657 F1500
G1 X41.450 Y58.450 E0.2657 F1500
G10
G10 ; unretract gere par firmware_retraction
G1 X71.000 Y58.000 F9000
G11
G1 X79.000 Y58.000 E0.2993 F1500
G1 X79.000 Y66.000 E0.2993 F1500
G1 X71.000 Y66.000 E0.2993 F1500
G1 X71.000 Y58.000 E0.2993 F1500
G1 X78.550 Y58.450 E0.2657 F1500
G1 X78.550 Y65.550 E0.2657 F1500
G1 X71.450 Y65.550 E0.2657 F1500
G1 X71.450 Y58.450 E0.2657 F1500
G10
; --- couche 30 / 125 (Z=6.00) ---
G1 Z6.000 F900
G10 ; unretract gere par firmware_retraction
G1 X41.000 Y58.000 F9000
G11
G1 X49.000 Y58.000 E0.2993 F1500
G1 X49.000 Y66.000 E0.2993 F1500
G1 X41.000 Y66.000 E0.2993 F1500
G1 X41.000 Y58.000 E0.2993 F1500
G1 X48.550 Y58.450 E0.2657 F1500
G1 X48.550 Y65.550 E0.2657 F1500
G1 X41.450 Y65.550 E0.2657 F1500
G1 X41.450 Y58.450 E0.2657 F1500
G10
G10 ; unretract gere par firmware_retraction
G1 X71.000 Y58.000 F9000
G11
G1 X79.000 Y58.000 E0.2993 F1500
G1 X79.000 Y66.000 E0.2993 F1500
G1 X71.000 Y66.000 E0.2993 F1500
G1 X71.000 Y58.000 E0.2993 F1500
G1 X78.550 Y58.450 E0.2657 F1500
G1 X78.550 Y65.550 E0.2657 F1500
G1 X71.450 Y65.550 E0.2657 F1500
G1 X71.450 Y58.450 E0.2657 F1500
G10
; --- couche 31 / 125 (Z=6.20) ---
G1 Z6.200 F900
G10 ; unretract gere par firmware_retraction
G1 X41.000 Y58.000 F9000
G11
G1 X49.000 Y58.000 E0.2993 F1500
G1 X49.000 Y66.000 E0.2993 F1500
G1 X41.000 Y66.000 E0.2993 F1500
G1 X41.000 Y58.000 E0.2993 F1500
G1 X48.550 Y58.450 E0.2657 F1500
G1 X48.550 Y65.550 E0.2657 F1500
G1 X41.450 Y65.550 E0.2657 F1500
G1 X41.450 Y58.450 E0.2657 F1500
G10
G10 ; unretract gere par firmware_retraction
G1 X71.000 Y58.000 F9000
G11
G1 X79.000 Y58.000 E0.2993 F1500
G1 X79.000 Y66.000 E0.2993 F1500
G1 X71.000 Y66.000 E0.2993 F1500
G1 X71.000 Y58.000 E0.2993 F1500
G1 X78.550 Y58.450 E0.2657 F1500
G1 X78.550 Y65.550 E0.2657 F1500
G1 X71.450 Y65.550 E0.2657 F1500
G1 X71.450 Y58.450 E0.2657 F1500
G10
; --- couche 32 / 125 (Z=6.40) ---
G1 Z6.400 F900
G10 ; unretract gere par firmware_retraction
G1 X41.000 Y58.000 F9000
G11
G1 X49.000 Y58.000 E0.2993 F1500
G1 X49.000 Y66.000 E0.2993 F1500
G1 X41.000 Y66.000 E0.2993 F1500
G1 X41.000 Y58.000 E0.2993 F1500
G1 X48.550 Y58.450 E0.2657 F1500
G1 X48.550 Y65.550 E0.2657 F1500
G1 X41.450 Y65.550 E0.2657 F1500
G1 X41.450 Y58.450 E0.2657 F1500
G10
G10 ; unretract gere par firmware_retraction
G1 X71.000 Y58.000 F9000
G11
G1 X79.000 Y58.000 E0.2993 F1500
G1 X79.000 Y66.000 E0.2993 F1500
G1 X71.000 Y66.000 E0.2993 F1500
G1 X71.000 Y58.000 E0.2993 F1500
G1 X78.550 Y58.450 E0.2657 F1500
G1 X78.550 Y65.550 E0.2657 F1500
G1 X71.450 Y65.550 E0.2657 F1500
G1 X71.450 Y58.450 E0.2657 F1500
G10
; --- couche 33 / 125 (Z=6.60) ---
G1 Z6.600 F900
G10 ; unretract gere par firmware_retraction
G1 X41.000 Y58.000 F9000
G11
G1 X49.000 Y58.000 E0.2993 F1500
G1 X49.000 Y66.000 E0.2993 F1500
G1 X41.000 Y66.000 E0.2993 F1500
G1 X41.000 Y58.000 E0.2993 F1500
G1 X48.550 Y58.450 E0.2657 F1500
G1 X48.550 Y65.550 E0.2657 F1500
G1 X41.450 Y65.550 E0.2657 F1500
G1 X41.450 Y58.450 E0.2657 F1500
G10
G10 ; unretract gere par firmware_retraction
G1 X71.000 Y58.000 F9000
G11
G1 X79.000 Y58.000 E0.2993 F1500
G1 X79.000 Y66.000 E0.2993 F1500
G1 X71.000 Y66.000 E0.2993 F1500
G1 X71.000 Y58.000 E0.2993 F1500
G1 X78.550 Y58.450 E0.2657 F1500
G1 X78.550 Y65.550 E0.2657 F1500
G1 X71.450 Y65.550 E0.2657 F1500
G1 X71.450 Y58.450 E0.2657 F1500
G10
; --- couche 34 / 125 (Z=6.80) ---
G1 Z6.800 F900
G10 ; unretract gere par firmware_retraction
G1 X41.000 Y58.000 F9000
G11
G1 X49.000 Y58.000 E0.2993 F1500
G1 X49.000 Y66.000 E0.2993 F1500
G1 X41.000 Y66.000 E0.2993 F1500
G1 X41.000 Y58.000 E0.2993 F1500
G1 X48.550 Y58.450 E0.2657 F1500
G1 X48.550 Y65.550 E0.2657 F1500
G1 X41.450 Y65.550 E0.2657 F1500
G1 X41.450 Y58.450 E0.2657 F1500
G10
G10 ; unretract gere par firmware_retraction
G1 X71.000 Y58.000 F9000
G11
G1 X79.000 Y58.000 E0.2993 F1500
G1 X79.000 Y66.000 E0.2993 F1500
G1 X71.000 Y66.000 E0.2993 F1500
G1 X71.000 Y58.000 E0.2993 F1500
G1 X78.550 Y58.450 E0.2657 F1500
G1 X78.550 Y65.550 E0.2657 F1500
G1 X71.450 Y65.550 E0.2657 F1500
G1 X71.450 Y58.450 E0.2657 F1500
G10
; --- couche 35 / 125 (Z=7.00) ---
G1 Z7.000 F900
G10 ; unretract gere par firmware_retraction
G1 X41.000 Y58.000 F9000
G11
G1 X49.000 Y58.000 E0.2993 F1500
G1 X49.000 Y66.000 E0.2993 F1500
G1 X41.000 Y66.000 E0.2993 F1500
G1 X41.000 Y58.000 E0.2993 F1500
G1 X48.550 Y58.450 E0.2657 F1500
G1 X48.550 Y65.550 E0.2657 F1500
G1 X41.450 Y65.550 E0.2657 F1500
G1 X41.450 Y58.450 E0.2657 F1500
G10
G10 ; unretract gere par firmware_retraction
G1 X71.000 Y58.000 F9000
G11
G1 X79.000 Y58.000 E0.2993 F1500
G1 X79.000 Y66.000 E0.2993 F1500
G1 X71.000 Y66.000 E0.2993 F1500
G1 X71.000 Y58.000 E0.2993 F1500
G1 X78.550 Y58.450 E0.2657 F1500
G1 X78.550 Y65.550 E0.2657 F1500
G1 X71.450 Y65.550 E0.2657 F1500
G1 X71.450 Y58.450 E0.2657 F1500
G10
; --- couche 36 / 125 (Z=7.20) ---
G1 Z7.200 F900
G10 ; unretract gere par firmware_retraction
G1 X41.000 Y58.000 F9000
G11
G1 X49.000 Y58.000 E0.2993 F1500
G1 X49.000 Y66.000 E0.2993 F1500
G1 X41.000 Y66.000 E0.2993 F1500
G1 X41.000 Y58.000 E0.2993 F1500
G1 X48.550 Y58.450 E0.2657 F1500
G1 X48.550 Y65.550 E0.2657 F1500
G1 X41.450 Y65.550 E0.2657 F1500
G1 X41.450 Y58.450 E0.2657 F1500
G10
G10 ; unretract gere par firmware_retraction
G1 X71.000 Y58.000 F9000
G11
G1 X79.000 Y58.000 E0.2993 F1500
G1 X79.000 Y66.000 E0.2993 F1500
G1 X71.000 Y66.000 E0.2993 F1500
G1 X71.000 Y58.000 E0.2993 F1500
G1 X78.550 Y58.450 E0.2657 F1500
G1 X78.550 Y65.550 E0.2657 F1500
G1 X71.450 Y65.550 E0.2657 F1500
G1 X71.450 Y58.450 E0.2657 F1500
G10
; --- couche 37 / 125 (Z=7.40) ---
G1 Z7.400 F900
G10 ; unretract gere par firmware_retraction
G1 X41.000 Y58.000 F9000
G11
G1 X49.000 Y58.000 E0.2993 F1500
G1 X49.000 Y66.000 E0.2993 F1500
G1 X41.000 Y66.000 E0.2993 F1500
G1 X41.000 Y58.000 E0.2993 F1500
G1 X48.550 Y58.450 E0.2657 F1500
G1 X48.550 Y65.550 E0.2657 F1500
G1 X41.450 Y65.550 E0.2657 F1500
G1 X41.450 Y58.450 E0.2657 F1500
G10
G10 ; unretract gere par firmware_retraction
G1 X71.000 Y58.000 F9000
G11
G1 X79.000 Y58.000 E0.2993 F1500
G1 X79.000 Y66.000 E0.2993 F1500
G1 X71.000 Y66.000 E0.2993 F1500
G1 X71.000 Y58.000 E0.2993 F1500
G1 X78.550 Y58.450 E0.2657 F1500
G1 X78.550 Y65.550 E0.2657 F1500
G1 X71.450 Y65.550 E0.2657 F1500
G1 X71.450 Y58.450 E0.2657 F1500
G10
; --- couche 38 / 125 (Z=7.60) ---
G1 Z7.600 F900
G10 ; unretract gere par firmware_retraction
G1 X41.000 Y58.000 F9000
G11
G1 X49.000 Y58.000 E0.2993 F1500
G1 X49.000 Y66.000 E0.2993 F1500
G1 X41.000 Y66.000 E0.2993 F1500
G1 X41.000 Y58.000 E0.2993 F1500
G1 X48.550 Y58.450 E0.2657 F1500
G1 X48.550 Y65.550 E0.2657 F1500
G1 X41.450 Y65.550 E0.2657 F1500
G1 X41.450 Y58.450 E0.2657 F1500
G10
G10 ; unretract gere par firmware_retraction
G1 X71.000 Y58.000 F9000
G11
G1 X79.000 Y58.000 E0.2993 F1500
G1 X79.000 Y66.000 E0.2993 F1500
G1 X71.000 Y66.000 E0.2993 F1500
G1 X71.000 Y58.000 E0.2993 F1500
G1 X78.550 Y58.450 E0.2657 F1500
G1 X78.550 Y65.550 E0.2657 F1500
G1 X71.450 Y65.550 E0.2657 F1500
G1 X71.450 Y58.450 E0.2657 F1500
G10
; --- couche 39 / 125 (Z=7.80) ---
G1 Z7.800 F900
G10 ; unretract gere par firmware_retraction
G1 X41.000 Y58.000 F9000
G11
G1 X49.000 Y58.000 E0.2993 F1500
G1 X49.000 Y66.000 E0.2993 F1500
G1 X41.000 Y66.000 E0.2993 F1500
G1 X41.000 Y58.000 E0.2993 F1500
G1 X48.550 Y58.450 E0.2657 F1500
G1 X48.550 Y65.550 E0.2657 F1500
G1 X41.450 Y65.550 E0.2657 F1500
G1 X41.450 Y58.450 E0.2657 F1500
G10
G10 ; unretract gere par firmware_retraction
G1 X71.000 Y58.000 F9000
G11
G1 X79.000 Y58.000 E0.2993 F1500
G1 X79.000 Y66.000 E0.2993 F1500
G1 X71.000 Y66.000 E0.2993 F1500
G1 X71.000 Y58.000 E0.2993 F1500
G1 X78.550 Y58.450 E0.2657 F1500
G1 X78.550 Y65.550 E0.2657 F1500
G1 X71.450 Y65.550 E0.2657 F1500
G1 X71.450 Y58.450 E0.2657 F1500
G10
; --- couche 40 / 125 (Z=8.00) ---
G1 Z8.000 F900
G10 ; unretract gere par firmware_retraction
G1 X41.000 Y58.000 F9000
G11
G1 X49.000 Y58.000 E0.2993 F1500
G1 X49.000 Y66.000 E0.2993 F1500
G1 X41.000 Y66.000 E0.2993 F1500
G1 X41.000 Y58.000 E0.2993 F1500
G1 X48.550 Y58.450 E0.2657 F1500
G1 X48.550 Y65.550 E0.2657 F1500
G1 X41.450 Y65.550 E0.2657 F1500
G1 X41.450 Y58.450 E0.2657 F1500
G10
G10 ; unretract gere par firmware_retraction
G1 X71.000 Y58.000 F9000
G11
G1 X79.000 Y58.000 E0.2993 F1500
G1 X79.000 Y66.000 E0.2993 F1500
G1 X71.000 Y66.000 E0.2993 F1500
G1 X71.000 Y58.000 E0.2993 F1500
G1 X78.550 Y58.450 E0.2657 F1500
G1 X78.550 Y65.550 E0.2657 F1500
G1 X71.450 Y65.550 E0.2657 F1500
G1 X71.450 Y58.450 E0.2657 F1500
G10
; --- couche 41 / 125 (Z=8.20) ---
G1 Z8.200 F900
G10 ; unretract gere par firmware_retraction
G1 X41.000 Y58.000 F9000
G11
G1 X49.000 Y58.000 E0.2993 F1500
G1 X49.000 Y66.000 E0.2993 F1500
G1 X41.000 Y66.000 E0.2993 F1500
G1 X41.000 Y58.000 E0.2993 F1500
G1 X48.550 Y58.450 E0.2657 F1500
G1 X48.550 Y65.550 E0.2657 F1500
G1 X41.450 Y65.550 E0.2657 F1500
G1 X41.450 Y58.450 E0.2657 F1500
G10
G10 ; unretract gere par firmware_retraction
G1 X71.000 Y58.000 F9000
G11
G1 X79.000 Y58.000 E0.2993 F1500
G1 X79.000 Y66.000 E0.2993 F1500
G1 X71.000 Y66.000 E0.2993 F1500
G1 X71.000 Y58.000 E0.2993 F1500
G1 X78.550 Y58.450 E0.2657 F1500
G1 X78.550 Y65.550 E0.2657 F1500
G1 X71.450 Y65.550 E0.2657 F1500
G1 X71.450 Y58.450 E0.2657 F1500
G10
; --- couche 42 / 125 (Z=8.40) ---
G1 Z8.400 F900
G10 ; unretract gere par firmware_retraction
G1 X41.000 Y58.000 F9000
G11
G1 X49.000 Y58.000 E0.2993 F1500
G1 X49.000 Y66.000 E0.2993 F1500
G1 X41.000 Y66.000 E0.2993 F1500
G1 X41.000 Y58.000 E0.2993 F1500
G1 X48.550 Y58.450 E0.2657 F1500
G1 X48.550 Y65.550 E0.2657 F1500
G1 X41.450 Y65.550 E0.2657 F1500
G1 X41.450 Y58.450 E0.2657 F1500
G10
G10 ; unretract gere par firmware_retraction
G1 X71.000 Y58.000 F9000
G11
G1 X79.000 Y58.000 E0.2993 F1500
G1 X79.000 Y66.000 E0.2993 F1500
G1 X71.000 Y66.000 E0.2993 F1500
G1 X71.000 Y58.000 E0.2993 F1500
G1 X78.550 Y58.450 E0.2657 F1500
G1 X78.550 Y65.550 E0.2657 F1500
G1 X71.450 Y65.550 E0.2657 F1500
G1 X71.450 Y58.450 E0.2657 F1500
G10
; --- couche 43 / 125 (Z=8.60) ---
G1 Z8.600 F900
G10 ; unretract gere par firmware_retraction
G1 X41.000 Y58.000 F9000
G11
G1 X49.000 Y58.000 E0.2993 F1500
G1 X49.000 Y66.000 E0.2993 F1500
G1 X41.000 Y66.000 E0.2993 F1500
G1 X41.000 Y58.000 E0.2993 F1500
G1 X48.550 Y58.450 E0.2657 F1500
G1 X48.550 Y65.550 E0.2657 F1500
G1 X41.450 Y65.550 E0.2657 F1500
G1 X41.450 Y58.450 E0.2657 F1500
G10
G10 ; unretract gere par firmware_retraction
G1 X71.000 Y58.000 F9000
G11
G1 X79.000 Y58.000 E0.2993 F1500
G1 X79.000 Y66.000 E0.2993 F1500
G1 X71.000 Y66.000 E0.2993 F1500
G1 X71.000 Y58.000 E0.2993 F1500
G1 X78.550 Y58.450 E0.2657 F1500
G1 X78.550 Y65.550 E0.2657 F1500
G1 X71.450 Y65.550 E0.2657 F1500
G1 X71.450 Y58.450 E0.2657 F1500
G10
; --- couche 44 / 125 (Z=8.80) ---
G1 Z8.800 F900
G10 ; unretract gere par firmware_retraction
G1 X41.000 Y58.000 F9000
G11
G1 X49.000 Y58.000 E0.2993 F1500
G1 X49.000 Y66.000 E0.2993 F1500
G1 X41.000 Y66.000 E0.2993 F1500
G1 X41.000 Y58.000 E0.2993 F1500
G1 X48.550 Y58.450 E0.2657 F1500
G1 X48.550 Y65.550 E0.2657 F1500
G1 X41.450 Y65.550 E0.2657 F1500
G1 X41.450 Y58.450 E0.2657 F1500
G10
G10 ; unretract gere par firmware_retraction
G1 X71.000 Y58.000 F9000
G11
G1 X79.000 Y58.000 E0.2993 F1500
G1 X79.000 Y66.000 E0.2993 F1500
G1 X71.000 Y66.000 E0.2993 F1500
G1 X71.000 Y58.000 E0.2993 F1500
G1 X78.550 Y58.450 E0.2657 F1500
G1 X78.550 Y65.550 E0.2657 F1500
G1 X71.450 Y65.550 E0.2657 F1500
G1 X71.450 Y58.450 E0.2657 F1500
G10
; --- couche 45 / 125 (Z=9.00) ---
G1 Z9.000 F900
G10 ; unretract gere par firmware_retraction
G1 X41.000 Y58.000 F9000
G11
G1 X49.000 Y58.000 E0.2993 F1500
G1 X49.000 Y66.000 E0.2993 F1500
G1 X41.000 Y66.000 E0.2993 F1500
G1 X41.000 Y58.000 E0.2993 F1500
G1 X48.550 Y58.450 E0.2657 F1500
G1 X48.550 Y65.550 E0.2657 F1500
G1 X41.450 Y65.550 E0.2657 F1500
G1 X41.450 Y58.450 E0.2657 F1500
G10
G10 ; unretract gere par firmware_retraction
G1 X71.000 Y58.000 F9000
G11
G1 X79.000 Y58.000 E0.2993 F1500
G1 X79.000 Y66.000 E0.2993 F1500
G1 X71.000 Y66.000 E0.2993 F1500
G1 X71.000 Y58.000 E0.2993 F1500
G1 X78.550 Y58.450 E0.2657 F1500
G1 X78.550 Y65.550 E0.2657 F1500
G1 X71.450 Y65.550 E0.2657 F1500
G1 X71.450 Y58.450 E0.2657 F1500
G10
; --- couche 46 / 125 (Z=9.20) ---
G1 Z9.200 F900
G10 ; unretract gere par firmware_retraction
G1 X41.000 Y58.000 F9000
G11
G1 X49.000 Y58.000 E0.2993 F1500
G1 X49.000 Y66.000 E0.2993 F1500
G1 X41.000 Y66.000 E0.2993 F1500
G1 X41.000 Y58.000 E0.2993 F1500
G1 X48.550 Y58.450 E0.2657 F1500
G1 X48.550 Y65.550 E0.2657 F1500
G1 X41.450 Y65.550 E0.2657 F1500
G1 X41.450 Y58.450 E0.2657 F1500
G10
G10 ; unretract gere par firmware_retraction
G1 X71.000 Y58.000 F9000
G11
G1 X79.000 Y58.000 E0.2993 F1500
G1 X79.000 Y66.000 E0.2993 F1500
G1 X71.000 Y66.000 E0.2993 F1500
G1 X71.000 Y58.000 E0.2993 F1500
G1 X78.550 Y58.450 E0.2657 F1500
G1 X78.550 Y65.550 E0.2657 F1500
G1 X71.450 Y65.550 E0.2657 F1500
G1 X71.450 Y58.450 E0.2657 F1500
G10
; --- couche 47 / 125 (Z=9.40) ---
G1 Z9.400 F900
G10 ; unretract gere par firmware_retraction
G1 X41.000 Y58.000 F9000
G11
G1 X49.000 Y58.000 E0.2993 F1500
G1 X49.000 Y66.000 E0.2993 F1500
G1 X41.000 Y66.000 E0.2993 F1500
G1 X41.000 Y58.000 E0.2993 F1500
G1 X48.550 Y58.450 E0.2657 F1500
G1 X48.550 Y65.550 E0.2657 F1500
G1 X41.450 Y65.550 E0.2657 F1500
G1 X41.450 Y58.450 E0.2657 F1500
G10
G10 ; unretract gere par firmware_retraction
G1 X71.000 Y58.000 F9000
G11
G1 X79.000 Y58.000 E0.2993 F1500
G1 X79.000 Y66.000 E0.2993 F1500
G1 X71.000 Y66.000 E0.2993 F1500
G1 X71.000 Y58.000 E0.2993 F1500
G1 X78.550 Y58.450 E0.2657 F1500
G1 X78.550 Y65.550 E0.2657 F1500
G1 X71.450 Y65.550 E0.2657 F1500
G1 X71.450 Y58.450 E0.2657 F1500
G10
; --- couche 48 / 125 (Z=9.60) ---
G1 Z9.600 F900
G10 ; unretract gere par firmware_retraction
G1 X41.000 Y58.000 F9000
G11
G1 X49.000 Y58.000 E0.2993 F1500
G1 X49.000 Y66.000 E0.2993 F1500
G1 X41.000 Y66.000 E0.2993 F1500
G1 X41.000 Y58.000 E0.2993 F1500
G1 X48.550 Y58.450 E0.2657 F1500
G1 X48.550 Y65.550 E0.2657 F1500
G1 X41.450 Y65.550 E0.2657 F1500
G1 X41.450 Y58.450 E0.2657 F1500
G10
G10 ; unretract gere par firmware_retraction
G1 X71.000 Y58.000 F9000
G11
G1 X79.000 Y58.000 E0.2993 F1500
G1 X79.000 Y66.000 E0.2993 F1500
G1 X71.000 Y66.000 E0.2993 F1500
G1 X71.000 Y58.000 E0.2993 F1500
G1 X78.550 Y58.450 E0.2657 F1500
G1 X78.550 Y65.550 E0.2657 F1500
G1 X71.450 Y65.550 E0.2657 F1500
G1 X71.450 Y58.450 E0.2657 F1500
G10
; --- couche 49 / 125 (Z=9.80) ---
G1 Z9.800 F900
G10 ; unretract gere par firmware_retraction
G1 X41.000 Y58.000 F9000
G11
G1 X49.000 Y58.000 E0.2993 F1500
G1 X49.000 Y66.000 E0.2993 F1500
G1 X41.000 Y66.000 E0.2993 F1500
G1 X41.000 Y58.000 E0.2993 F1500
G1 X48.550 Y58.450 E0.2657 F1500
G1 X48.550 Y65.550 E0.2657 F1500
G1 X41.450 Y65.550 E0.2657 F1500
G1 X41.450 Y58.450 E0.2657 F1500
G10
G10 ; unretract gere par firmware_retraction
G1 X71.000 Y58.000 F9000
G11
G1 X79.000 Y58.000 E0.2993 F1500
G1 X79.000 Y66.000 E0.2993 F1500
G1 X71.000 Y66.000 E0.2993 F1500
G1 X71.000 Y58.000 E0.2993 F1500
G1 X78.550 Y58.450 E0.2657 F1500
G1 X78.550 Y65.550 E0.2657 F1500
G1 X71.450 Y65.550 E0.2657 F1500
G1 X71.450 Y58.450 E0.2657 F1500
G10
; --- couche 50 / 125 (Z=10.00) ---
G1 Z10.000 F900
G10 ; unretract gere par firmware_retraction
G1 X41.000 Y58.000 F9000
G11
G1 X49.000 Y58.000 E0.2993 F1500
G1 X49.000 Y66.000 E0.2993 F1500
G1 X41.000 Y66.000 E0.2993 F1500
G1 X41.000 Y58.000 E0.2993 F1500
G1 X48.550 Y58.450 E0.2657 F1500
G1 X48.550 Y65.550 E0.2657 F1500
G1 X41.450 Y65.550 E0.2657 F1500
G1 X41.450 Y58.450 E0.2657 F1500
G10
G10 ; unretract gere par firmware_retraction
G1 X71.000 Y58.000 F9000
G11
G1 X79.000 Y58.000 E0.2993 F1500
G1 X79.000 Y66.000 E0.2993 F1500
G1 X71.000 Y66.000 E0.2993 F1500
G1 X71.000 Y58.000 E0.2993 F1500
G1 X78.550 Y58.450 E0.2657 F1500
G1 X78.550 Y65.550 E0.2657 F1500
G1 X71.450 Y65.550 E0.2657 F1500
G1 X71.450 Y58.450 E0.2657 F1500
G10
; --- couche 51 / 125 (Z=10.20) ---
G1 Z10.200 F900
G10 ; unretract gere par firmware_retraction
G1 X41.000 Y58.000 F9000
G11
G1 X49.000 Y58.000 E0.2993 F1500
G1 X49.000 Y66.000 E0.2993 F1500
G1 X41.000 Y66.000 E0.2993 F1500
G1 X41.000 Y58.000 E0.2993 F1500
G1 X48.550 Y58.450 E0.2657 F1500
G1 X48.550 Y65.550 E0.2657 F1500
G1 X41.450 Y65.550 E0.2657 F1500
G1 X41.450 Y58.450 E0.2657 F1500
G10
G10 ; unretract gere par firmware_retraction
G1 X71.000 Y58.000 F9000
G11
G1 X79.000 Y58.000 E0.2993 F1500
G1 X79.000 Y66.000 E0.2993 F1500
G1 X71.000 Y66.000 E0.2993 F1500
G1 X71.000 Y58.000 E0.2993 F1500
G1 X78.550 Y58.450 E0.2657 F1500
G1 X78.550 Y65.550 E0.2657 F1500
G1 X71.450 Y65.550 E0.2657 F1500
G1 X71.450 Y58.450 E0.2657 F1500
G10
; --- couche 52 / 125 (Z=10.40) ---
G1 Z10.400 F900
G10 ; unretract gere par firmware_retraction
G1 X41.000 Y58.000 F9000
G11
G1 X49.000 Y58.000 E0.2993 F1500
G1 X49.000 Y66.000 E0.2993 F1500
G1 X41.000 Y66.000 E0.2993 F1500
G1 X41.000 Y58.000 E0.2993 F1500
G1 X48.550 Y58.450 E0.2657 F1500
G1 X48.550 Y65.550 E0.2657 F1500
G1 X41.450 Y65.550 E0.2657 F1500
G1 X41.450 Y58.450 E0.2657 F1500
G10
G10 ; unretract gere par firmware_retraction
G1 X71.000 Y58.000 F9000
G11
G1 X79.000 Y58.000 E0.2993 F1500
G1 X79.000 Y66.000 E0.2993 F1500
G1 X71.000 Y66.000 E0.2993 F1500
G1 X71.000 Y58.000 E0.2993 F1500
G1 X78.550 Y58.450 E0.2657 F1500
G1 X78.550 Y65.550 E0.2657 F1500
G1 X71.450 Y65.550 E0.2657 F1500
G1 X71.450 Y58.450 E0.2657 F1500
G10
; --- couche 53 / 125 (Z=10.60) ---
G1 Z10.600 F900
G10 ; unretract gere par firmware_retraction
G1 X41.000 Y58.000 F9000
G11
G1 X49.000 Y58.000 E0.2993 F1500
G1 X49.000 Y66.000 E0.2993 F1500
G1 X41.000 Y66.000 E0.2993 F1500
G1 X41.000 Y58.000 E0.2993 F1500
G1 X48.550 Y58.450 E0.2657 F1500
G1 X48.550 Y65.550 E0.2657 F1500
G1 X41.450 Y65.550 E0.2657 F1500
G1 X41.450 Y58.450 E0.2657 F1500
G10
G10 ; unretract gere par firmware_retraction
G1 X71.000 Y58.000 F9000
G11
G1 X79.000 Y58.000 E0.2993 F1500
G1 X79.000 Y66.000 E0.2993 F1500
G1 X71.000 Y66.000 E0.2993 F1500
G1 X71.000 Y58.000 E0.2993 F1500
G1 X78.550 Y58.450 E0.2657 F1500
G1 X78.550 Y65.550 E0.2657 F1500
G1 X71.450 Y65.550 E0.2657 F1500
G1 X71.450 Y58.450 E0.2657 F1500
G10
; --- couche 54 / 125 (Z=10.80) ---
G1 Z10.800 F900
G10 ; unretract gere par firmware_retraction
G1 X41.000 Y58.000 F9000
G11
G1 X49.000 Y58.000 E0.2993 F1500
G1 X49.000 Y66.000 E0.2993 F1500
G1 X41.000 Y66.000 E0.2993 F1500
G1 X41.000 Y58.000 E0.2993 F1500
G1 X48.550 Y58.450 E0.2657 F1500
G1 X48.550 Y65.550 E0.2657 F1500
G1 X41.450 Y65.550 E0.2657 F1500
G1 X41.450 Y58.450 E0.2657 F1500
G10
G10 ; unretract gere par firmware_retraction
G1 X71.000 Y58.000 F9000
G11
G1 X79.000 Y58.000 E0.2993 F1500
G1 X79.000 Y66.000 E0.2993 F1500
G1 X71.000 Y66.000 E0.2993 F1500
G1 X71.000 Y58.000 E0.2993 F1500
G1 X78.550 Y58.450 E0.2657 F1500
G1 X78.550 Y65.550 E0.2657 F1500
G1 X71.450 Y65.550 E0.2657 F1500
G1 X71.450 Y58.450 E0.2657 F1500
G10
; --- couche 55 / 125 (Z=11.00) ---
G1 Z11.000 F900
G10 ; unretract gere par firmware_retraction
G1 X41.000 Y58.000 F9000
G11
G1 X49.000 Y58.000 E0.2993 F1500
G1 X49.000 Y66.000 E0.2993 F1500
G1 X41.000 Y66.000 E0.2993 F1500
G1 X41.000 Y58.000 E0.2993 F1500
G1 X48.550 Y58.450 E0.2657 F1500
G1 X48.550 Y65.550 E0.2657 F1500
G1 X41.450 Y65.550 E0.2657 F1500
G1 X41.450 Y58.450 E0.2657 F1500
G10
G10 ; unretract gere par firmware_retraction
G1 X71.000 Y58.000 F9000
G11
G1 X79.000 Y58.000 E0.2993 F1500
G1 X79.000 Y66.000 E0.2993 F1500
G1 X71.000 Y66.000 E0.2993 F1500
G1 X71.000 Y58.000 E0.2993 F1500
G1 X78.550 Y58.450 E0.2657 F1500
G1 X78.550 Y65.550 E0.2657 F1500
G1 X71.450 Y65.550 E0.2657 F1500
G1 X71.450 Y58.450 E0.2657 F1500
G10
; --- couche 56 / 125 (Z=11.20) ---
G1 Z11.200 F900
G10 ; unretract gere par firmware_retraction
G1 X41.000 Y58.000 F9000
G11
G1 X49.000 Y58.000 E0.2993 F1500
G1 X49.000 Y66.000 E0.2993 F1500
G1 X41.000 Y66.000 E0.2993 F1500
G1 X41.000 Y58.000 E0.2993 F1500
G1 X48.550 Y58.450 E0.2657 F1500
G1 X48.550 Y65.550 E0.2657 F1500
G1 X41.450 Y65.550 E0.2657 F1500
G1 X41.450 Y58.450 E0.2657 F1500
G10
G10 ; unretract gere par firmware_retraction
G1 X71.000 Y58.000 F9000
G11
G1 X79.000 Y58.000 E0.2993 F1500
G1 X79.000 Y66.000 E0.2993 F1500
G1 X71.000 Y66.000 E0.2993 F1500
G1 X71.000 Y58.000 E0.2993 F1500
G1 X78.550 Y58.450 E0.2657 F1500
G1 X78.550 Y65.550 E0.2657 F1500
G1 X71.450 Y65.550 E0.2657 F1500
G1 X71.450 Y58.450 E0.2657 F1500
G10
; --- couche 57 / 125 (Z=11.40) ---
G1 Z11.400 F900
G10 ; unretract gere par firmware_retraction
G1 X41.000 Y58.000 F9000
G11
G1 X49.000 Y58.000 E0.2993 F1500
G1 X49.000 Y66.000 E0.2993 F1500
G1 X41.000 Y66.000 E0.2993 F1500
G1 X41.000 Y58.000 E0.2993 F1500
G1 X48.550 Y58.450 E0.2657 F1500
G1 X48.550 Y65.550 E0.2657 F1500
G1 X41.450 Y65.550 E0.2657 F1500
G1 X41.450 Y58.450 E0.2657 F1500
G10
G10 ; unretract gere par firmware_retraction
G1 X71.000 Y58.000 F9000
G11
G1 X79.000 Y58.000 E0.2993 F1500
G1 X79.000 Y66.000 E0.2993 F1500
G1 X71.000 Y66.000 E0.2993 F1500
G1 X71.000 Y58.000 E0.2993 F1500
G1 X78.550 Y58.450 E0.2657 F1500
G1 X78.550 Y65.550 E0.2657 F1500
G1 X71.450 Y65.550 E0.2657 F1500
G1 X71.450 Y58.450 E0.2657 F1500
G10
; --- couche 58 / 125 (Z=11.60) ---
G1 Z11.600 F900
G10 ; unretract gere par firmware_retraction
G1 X41.000 Y58.000 F9000
G11
G1 X49.000 Y58.000 E0.2993 F1500
G1 X49.000 Y66.000 E0.2993 F1500
G1 X41.000 Y66.000 E0.2993 F1500
G1 X41.000 Y58.000 E0.2993 F1500
G1 X48.550 Y58.450 E0.2657 F1500
G1 X48.550 Y65.550 E0.2657 F1500
G1 X41.450 Y65.550 E0.2657 F1500
G1 X41.450 Y58.450 E0.2657 F1500
G10
G10 ; unretract gere par firmware_retraction
G1 X71.000 Y58.000 F9000
G11
G1 X79.000 Y58.000 E0.2993 F1500
G1 X79.000 Y66.000 E0.2993 F1500
G1 X71.000 Y66.000 E0.2993 F1500
G1 X71.000 Y58.000 E0.2993 F1500
G1 X78.550 Y58.450 E0.2657 F1500
G1 X78.550 Y65.550 E0.2657 F1500
G1 X71.450 Y65.550 E0.2657 F1500
G1 X71.450 Y58.450 E0.2657 F1500
G10
; --- couche 59 / 125 (Z=11.80) ---
G1 Z11.800 F900
G10 ; unretract gere par firmware_retraction
G1 X41.000 Y58.000 F9000
G11
G1 X49.000 Y58.000 E0.2993 F1500
G1 X49.000 Y66.000 E0.2993 F1500
G1 X41.000 Y66.000 E0.2993 F1500
G1 X41.000 Y58.000 E0.2993 F1500
G1 X48.550 Y58.450 E0.2657 F1500
G1 X48.550 Y65.550 E0.2657 F1500
G1 X41.450 Y65.550 E0.2657 F1500
G1 X41.450 Y58.450 E0.2657 F1500
G10
G10 ; unretract gere par firmware_retraction
G1 X71.000 Y58.000 F9000
G11
G1 X79.000 Y58.000 E0.2993 F1500
G1 X79.000 Y66.000 E0.2993 F1500
G1 X71.000 Y66.000 E0.2993 F1500
G1 X71.000 Y58.000 E0.2993 F1500
G1 X78.550 Y58.450 E0.2657 F1500
G1 X78.550 Y65.550 E0.2657 F1500
G1 X71.450 Y65.550 E0.2657 F1500
G1 X71.450 Y58.450 E0.2657 F1500
G10
; --- couche 60 / 125 (Z=12.00) ---
G1 Z12.000 F900
G10 ; unretract gere par firmware_retraction
G1 X41.000 Y58.000 F9000
G11
G1 X49.000 Y58.000 E0.2993 F1500
G1 X49.000 Y66.000 E0.2993 F1500
G1 X41.000 Y66.000 E0.2993 F1500
G1 X41.000 Y58.000 E0.2993 F1500
G1 X48.550 Y58.450 E0.2657 F1500
G1 X48.550 Y65.550 E0.2657 F1500
G1 X41.450 Y65.550 E0.2657 F1500
G1 X41.450 Y58.450 E0.2657 F1500
G10
G10 ; unretract gere par firmware_retraction
G1 X71.000 Y58.000 F9000
G11
G1 X79.000 Y58.000 E0.2993 F1500
G1 X79.000 Y66.000 E0.2993 F1500
G1 X71.000 Y66.000 E0.2993 F1500
G1 X71.000 Y58.000 E0.2993 F1500
G1 X78.550 Y58.450 E0.2657 F1500
G1 X78.550 Y65.550 E0.2657 F1500
G1 X71.450 Y65.550 E0.2657 F1500
G1 X71.450 Y58.450 E0.2657 F1500
G10
; --- couche 61 / 125 (Z=12.20) ---
G1 Z12.200 F900
G10 ; unretract gere par firmware_retraction
G1 X41.000 Y58.000 F9000
G11
G1 X49.000 Y58.000 E0.2993 F1500
G1 X49.000 Y66.000 E0.2993 F1500
G1 X41.000 Y66.000 E0.2993 F1500
G1 X41.000 Y58.000 E0.2993 F1500
G1 X48.550 Y58.450 E0.2657 F1500
G1 X48.550 Y65.550 E0.2657 F1500
G1 X41.450 Y65.550 E0.2657 F1500
G1 X41.450 Y58.450 E0.2657 F1500
G10
G10 ; unretract gere par firmware_retraction
G1 X71.000 Y58.000 F9000
G11
G1 X79.000 Y58.000 E0.2993 F1500
G1 X79.000 Y66.000 E0.2993 F1500
G1 X71.000 Y66.000 E0.2993 F1500
G1 X71.000 Y58.000 E0.2993 F1500
G1 X78.550 Y58.450 E0.2657 F1500
G1 X78.550 Y65.550 E0.2657 F1500
G1 X71.450 Y65.550 E0.2657 F1500
G1 X71.450 Y58.450 E0.2657 F1500
G10
; --- couche 62 / 125 (Z=12.40) ---
G1 Z12.400 F900
G10 ; unretract gere par firmware_retraction
G1 X41.000 Y58.000 F9000
G11
G1 X49.000 Y58.000 E0.2993 F1500
G1 X49.000 Y66.000 E0.2993 F1500
G1 X41.000 Y66.000 E0.2993 F1500
G1 X41.000 Y58.000 E0.2993 F1500
G1 X48.550 Y58.450 E0.2657 F1500
G1 X48.550 Y65.550 E0.2657 F1500
G1 X41.450 Y65.550 E0.2657 F1500
G1 X41.450 Y58.450 E0.2657 F1500
G10
G10 ; unretract gere par firmware_retraction
G1 X71.000 Y58.000 F9000
G11
G1 X79.000 Y58.000 E0.2993 F1500
G1 X79.000 Y66.000 E0.2993 F1500
G1 X71.000 Y66.000 E0.2993 F1500
G1 X71.000 Y58.000 E0.2993 F1500
G1 X78.550 Y58.450 E0.2657 F1500
G1 X78.550 Y65.550 E0.2657 F1500
G1 X71.450 Y65.550 E0.2657 F1500
G1 X71.450 Y58.450 E0.2657 F1500
G10
; --- couche 63 / 125 (Z=12.60) ---
G1 Z12.600 F900
G10 ; unretract gere par firmware_retraction
G1 X41.000 Y58.000 F9000
G11
G1 X49.000 Y58.000 E0.2993 F1500
G1 X49.000 Y66.000 E0.2993 F1500
G1 X41.000 Y66.000 E0.2993 F1500
G1 X41.000 Y58.000 E0.2993 F1500
G1 X48.550 Y58.450 E0.2657 F1500
G1 X48.550 Y65.550 E0.2657 F1500
G1 X41.450 Y65.550 E0.2657 F1500
G1 X41.450 Y58.450 E0.2657 F1500
G10
G10 ; unretract gere par firmware_retraction
G1 X71.000 Y58.000 F9000
G11
G1 X79.000 Y58.000 E0.2993 F1500
G1 X79.000 Y66.000 E0.2993 F1500
G1 X71.000 Y66.000 E0.2993 F1500
G1 X71.000 Y58.000 E0.2993 F1500
G1 X78.550 Y58.450 E0.2657 F1500
G1 X78.550 Y65.550 E0.2657 F1500
G1 X71.450 Y65.550 E0.2657 F1500
G1 X71.450 Y58.450 E0.2657 F1500
G10
; --- couche 64 / 125 (Z=12.80) ---
G1 Z12.800 F900
G10 ; unretract gere par firmware_retraction
G1 X41.000 Y58.000 F9000
G11
G1 X49.000 Y58.000 E0.2993 F1500
G1 X49.000 Y66.000 E0.2993 F1500
G1 X41.000 Y66.000 E0.2993 F1500
G1 X41.000 Y58.000 E0.2993 F1500
G1 X48.550 Y58.450 E0.2657 F1500
G1 X48.550 Y65.550 E0.2657 F1500
G1 X41.450 Y65.550 E0.2657 F1500
G1 X41.450 Y58.450 E0.2657 F1500
G10
G10 ; unretract gere par firmware_retraction
G1 X71.000 Y58.000 F9000
G11
G1 X79.000 Y58.000 E0.2993 F1500
G1 X79.000 Y66.000 E0.2993 F1500
G1 X71.000 Y66.000 E0.2993 F1500
G1 X71.000 Y58.000 E0.2993 F1500
G1 X78.550 Y58.450 E0.2657 F1500
G1 X78.550 Y65.550 E0.2657 F1500
G1 X71.450 Y65.550 E0.2657 F1500
G1 X71.450 Y58.450 E0.2657 F1500
G10
; --- couche 65 / 125 (Z=13.00) ---
G1 Z13.000 F900
G10 ; unretract gere par firmware_retraction
G1 X41.000 Y58.000 F9000
G11
G1 X49.000 Y58.000 E0.2993 F1500
G1 X49.000 Y66.000 E0.2993 F1500
G1 X41.000 Y66.000 E0.2993 F1500
G1 X41.000 Y58.000 E0.2993 F1500
G1 X48.550 Y58.450 E0.2657 F1500
G1 X48.550 Y65.550 E0.2657 F1500
G1 X41.450 Y65.550 E0.2657 F1500
G1 X41.450 Y58.450 E0.2657 F1500
G10
G10 ; unretract gere par firmware_retraction
G1 X71.000 Y58.000 F9000
G11
G1 X79.000 Y58.000 E0.2993 F1500
G1 X79.000 Y66.000 E0.2993 F1500
G1 X71.000 Y66.000 E0.2993 F1500
G1 X71.000 Y58.000 E0.2993 F1500
G1 X78.550 Y58.450 E0.2657 F1500
G1 X78.550 Y65.550 E0.2657 F1500
G1 X71.450 Y65.550 E0.2657 F1500
G1 X71.450 Y58.450 E0.2657 F1500
G10
; --- couche 66 / 125 (Z=13.20) ---
G1 Z13.200 F900
G10 ; unretract gere par firmware_retraction
G1 X41.000 Y58.000 F9000
G11
G1 X49.000 Y58.000 E0.2993 F1500
G1 X49.000 Y66.000 E0.2993 F1500
G1 X41.000 Y66.000 E0.2993 F1500
G1 X41.000 Y58.000 E0.2993 F1500
G1 X48.550 Y58.450 E0.2657 F1500
G1 X48.550 Y65.550 E0.2657 F1500
G1 X41.450 Y65.550 E0.2657 F1500
G1 X41.450 Y58.450 E0.2657 F1500
G10
G10 ; unretract gere par firmware_retraction
G1 X71.000 Y58.000 F9000
G11
G1 X79.000 Y58.000 E0.2993 F1500
G1 X79.000 Y66.000 E0.2993 F1500
G1 X71.000 Y66.000 E0.2993 F1500
G1 X71.000 Y58.000 E0.2993 F1500
G1 X78.550 Y58.450 E0.2657 F1500
G1 X78.550 Y65.550 E0.2657 F1500
G1 X71.450 Y65.550 E0.2657 F1500
G1 X71.450 Y58.450 E0.2657 F1500
G10
; --- couche 67 / 125 (Z=13.40) ---
G1 Z13.400 F900
G10 ; unretract gere par firmware_retraction
G1 X41.000 Y58.000 F9000
G11
G1 X49.000 Y58.000 E0.2993 F1500
G1 X49.000 Y66.000 E0.2993 F1500
G1 X41.000 Y66.000 E0.2993 F1500
G1 X41.000 Y58.000 E0.2993 F1500
G1 X48.550 Y58.450 E0.2657 F1500
G1 X48.550 Y65.550 E0.2657 F1500
G1 X41.450 Y65.550 E0.2657 F1500
G1 X41.450 Y58.450 E0.2657 F1500
G10
G10 ; unretract gere par firmware_retraction
G1 X71.000 Y58.000 F9000
G11
G1 X79.000 Y58.000 E0.2993 F1500
G1 X79.000 Y66.000 E0.2993 F1500
G1 X71.000 Y66.000 E0.2993 F1500
G1 X71.000 Y58.000 E0.2993 F1500
G1 X78.550 Y58.450 E0.2657 F1500
G1 X78.550 Y65.550 E0.2657 F1500
G1 X71.450 Y65.550 E0.2657 F1500
G1 X71.450 Y58.450 E0.2657 F1500
G10
; --- couche 68 / 125 (Z=13.60) ---
G1 Z13.600 F900
G10 ; unretract gere par firmware_retraction
G1 X41.000 Y58.000 F9000
G11
G1 X49.000 Y58.000 E0.2993 F1500
G1 X49.000 Y66.000 E0.2993 F1500
G1 X41.000 Y66.000 E0.2993 F1500
G1 X41.000 Y58.000 E0.2993 F1500
G1 X48.550 Y58.450 E0.2657 F1500
G1 X48.550 Y65.550 E0.2657 F1500
G1 X41.450 Y65.550 E0.2657 F1500
G1 X41.450 Y58.450 E0.2657 F1500
G10
G10 ; unretract gere par firmware_retraction
G1 X71.000 Y58.000 F9000
G11
G1 X79.000 Y58.000 E0.2993 F1500
G1 X79.000 Y66.000 E0.2993 F1500
G1 X71.000 Y66.000 E0.2993 F1500
G1 X71.000 Y58.000 E0.2993 F1500
G1 X78.550 Y58.450 E0.2657 F1500
G1 X78.550 Y65.550 E0.2657 F1500
G1 X71.450 Y65.550 E0.2657 F1500
G1 X71.450 Y58.450 E0.2657 F1500
G10
; --- couche 69 / 125 (Z=13.80) ---
G1 Z13.800 F900
G10 ; unretract gere par firmware_retraction
G1 X41.000 Y58.000 F9000
G11
G1 X49.000 Y58.000 E0.2993 F1500
G1 X49.000 Y66.000 E0.2993 F1500
G1 X41.000 Y66.000 E0.2993 F1500
G1 X41.000 Y58.000 E0.2993 F1500
G1 X48.550 Y58.450 E0.2657 F1500
G1 X48.550 Y65.550 E0.2657 F1500
G1 X41.450 Y65.550 E0.2657 F1500
G1 X41.450 Y58.450 E0.2657 F1500
G10
G10 ; unretract gere par firmware_retraction
G1 X71.000 Y58.000 F9000
G11
G1 X79.000 Y58.000 E0.2993 F1500
G1 X79.000 Y66.000 E0.2993 F1500
G1 X71.000 Y66.000 E0.2993 F1500
G1 X71.000 Y58.000 E0.2993 F1500
G1 X78.550 Y58.450 E0.2657 F1500
G1 X78.550 Y65.550 E0.2657 F1500
G1 X71.450 Y65.550 E0.2657 F1500
G1 X71.450 Y58.450 E0.2657 F1500
G10
; --- couche 70 / 125 (Z=14.00) ---
G1 Z14.000 F900
G10 ; unretract gere par firmware_retraction
G1 X41.000 Y58.000 F9000
G11
G1 X49.000 Y58.000 E0.2993 F1500
G1 X49.000 Y66.000 E0.2993 F1500
G1 X41.000 Y66.000 E0.2993 F1500
G1 X41.000 Y58.000 E0.2993 F1500
G1 X48.550 Y58.450 E0.2657 F1500
G1 X48.550 Y65.550 E0.2657 F1500
G1 X41.450 Y65.550 E0.2657 F1500
G1 X41.450 Y58.450 E0.2657 F1500
G10
G10 ; unretract gere par firmware_retraction
G1 X71.000 Y58.000 F9000
G11
G1 X79.000 Y58.000 E0.2993 F1500
G1 X79.000 Y66.000 E0.2993 F1500
G1 X71.000 Y66.000 E0.2993 F1500
G1 X71.000 Y58.000 E0.2993 F1500
G1 X78.550 Y58.450 E0.2657 F1500
G1 X78.550 Y65.550 E0.2657 F1500
G1 X71.450 Y65.550 E0.2657 F1500
G1 X71.450 Y58.450 E0.2657 F1500
G10
; --- couche 71 / 125 (Z=14.20) ---
G1 Z14.200 F900
G10 ; unretract gere par firmware_retraction
G1 X41.000 Y58.000 F9000
G11
G1 X49.000 Y58.000 E0.2993 F1500
G1 X49.000 Y66.000 E0.2993 F1500
G1 X41.000 Y66.000 E0.2993 F1500
G1 X41.000 Y58.000 E0.2993 F1500
G1 X48.550 Y58.450 E0.2657 F1500
G1 X48.550 Y65.550 E0.2657 F1500
G1 X41.450 Y65.550 E0.2657 F1500
G1 X41.450 Y58.450 E0.2657 F1500
G10
G10 ; unretract gere par firmware_retraction
G1 X71.000 Y58.000 F9000
G11
G1 X79.000 Y58.000 E0.2993 F1500
G1 X79.000 Y66.000 E0.2993 F1500
G1 X71.000 Y66.000 E0.2993 F1500
G1 X71.000 Y58.000 E0.2993 F1500
G1 X78.550 Y58.450 E0.2657 F1500
G1 X78.550 Y65.550 E0.2657 F1500
G1 X71.450 Y65.550 E0.2657 F1500
G1 X71.450 Y58.450 E0.2657 F1500
G10
; --- couche 72 / 125 (Z=14.40) ---
G1 Z14.400 F900
G10 ; unretract gere par firmware_retraction
G1 X41.000 Y58.000 F9000
G11
G1 X49.000 Y58.000 E0.2993 F1500
G1 X49.000 Y66.000 E0.2993 F1500
G1 X41.000 Y66.000 E0.2993 F1500
G1 X41.000 Y58.000 E0.2993 F1500
G1 X48.550 Y58.450 E0.2657 F1500
G1 X48.550 Y65.550 E0.2657 F1500
G1 X41.450 Y65.550 E0.2657 F1500
G1 X41.450 Y58.450 E0.2657 F1500
G10
G10 ; unretract gere par firmware_retraction
G1 X71.000 Y58.000 F9000
G11
G1 X79.000 Y58.000 E0.2993 F1500
G1 X79.000 Y66.000 E0.2993 F1500
G1 X71.000 Y66.000 E0.2993 F1500
G1 X71.000 Y58.000 E0.2993 F1500
G1 X78.550 Y58.450 E0.2657 F1500
G1 X78.550 Y65.550 E0.2657 F1500
G1 X71.450 Y65.550 E0.2657 F1500
G1 X71.450 Y58.450 E0.2657 F1500
G10
; --- couche 73 / 125 (Z=14.60) ---
G1 Z14.600 F900
G10 ; unretract gere par firmware_retraction
G1 X41.000 Y58.000 F9000
G11
G1 X49.000 Y58.000 E0.2993 F1500
G1 X49.000 Y66.000 E0.2993 F1500
G1 X41.000 Y66.000 E0.2993 F1500
G1 X41.000 Y58.000 E0.2993 F1500
G1 X48.550 Y58.450 E0.2657 F1500
G1 X48.550 Y65.550 E0.2657 F1500
G1 X41.450 Y65.550 E0.2657 F1500
G1 X41.450 Y58.450 E0.2657 F1500
G10
G10 ; unretract gere par firmware_retraction
G1 X71.000 Y58.000 F9000
G11
G1 X79.000 Y58.000 E0.2993 F1500
G1 X79.000 Y66.000 E0.2993 F1500
G1 X71.000 Y66.000 E0.2993 F1500
G1 X71.000 Y58.000 E0.2993 F1500
G1 X78.550 Y58.450 E0.2657 F1500
G1 X78.550 Y65.550 E0.2657 F1500
G1 X71.450 Y65.550 E0.2657 F1500
G1 X71.450 Y58.450 E0.2657 F1500
G10
; --- couche 74 / 125 (Z=14.80) ---
G1 Z14.800 F900
G10 ; unretract gere par firmware_retraction
G1 X41.000 Y58.000 F9000
G11
G1 X49.000 Y58.000 E0.2993 F1500
G1 X49.000 Y66.000 E0.2993 F1500
G1 X41.000 Y66.000 E0.2993 F1500
G1 X41.000 Y58.000 E0.2993 F1500
G1 X48.550 Y58.450 E0.2657 F1500
G1 X48.550 Y65.550 E0.2657 F1500
G1 X41.450 Y65.550 E0.2657 F1500
G1 X41.450 Y58.450 E0.2657 F1500
G10
G10 ; unretract gere par firmware_retraction
G1 X71.000 Y58.000 F9000
G11
G1 X79.000 Y58.000 E0.2993 F1500
G1 X79.000 Y66.000 E0.2993 F1500
G1 X71.000 Y66.000 E0.2993 F1500
G1 X71.000 Y58.000 E0.2993 F1500
G1 X78.550 Y58.450 E0.2657 F1500
G1 X78.550 Y65.550 E0.2657 F1500
G1 X71.450 Y65.550 E0.2657 F1500
G1 X71.450 Y58.450 E0.2657 F1500
G10
; --- couche 75 / 125 (Z=15.00) ---
G1 Z15.000 F900
G10 ; unretract gere par firmware_retraction
G1 X41.000 Y58.000 F9000
G11
G1 X49.000 Y58.000 E0.2993 F1500
G1 X49.000 Y66.000 E0.2993 F1500
G1 X41.000 Y66.000 E0.2993 F1500
G1 X41.000 Y58.000 E0.2993 F1500
G1 X48.550 Y58.450 E0.2657 F1500
G1 X48.550 Y65.550 E0.2657 F1500
G1 X41.450 Y65.550 E0.2657 F1500
G1 X41.450 Y58.450 E0.2657 F1500
G10
G10 ; unretract gere par firmware_retraction
G1 X71.000 Y58.000 F9000
G11
G1 X79.000 Y58.000 E0.2993 F1500
G1 X79.000 Y66.000 E0.2993 F1500
G1 X71.000 Y66.000 E0.2993 F1500
G1 X71.000 Y58.000 E0.2993 F1500
G1 X78.550 Y58.450 E0.2657 F1500
G1 X78.550 Y65.550 E0.2657 F1500
G1 X71.450 Y65.550 E0.2657 F1500
G1 X71.450 Y58.450 E0.2657 F1500
G10
; --- couche 76 / 125 (Z=15.20) ---
G1 Z15.200 F900
G10 ; unretract gere par firmware_retraction
G1 X41.000 Y58.000 F9000
G11
G1 X49.000 Y58.000 E0.2993 F1500
G1 X49.000 Y66.000 E0.2993 F1500
G1 X41.000 Y66.000 E0.2993 F1500
G1 X41.000 Y58.000 E0.2993 F1500
G1 X48.550 Y58.450 E0.2657 F1500
G1 X48.550 Y65.550 E0.2657 F1500
G1 X41.450 Y65.550 E0.2657 F1500
G1 X41.450 Y58.450 E0.2657 F1500
G10
G10 ; unretract gere par firmware_retraction
G1 X71.000 Y58.000 F9000
G11
G1 X79.000 Y58.000 E0.2993 F1500
G1 X79.000 Y66.000 E0.2993 F1500
G1 X71.000 Y66.000 E0.2993 F1500
G1 X71.000 Y58.000 E0.2993 F1500
G1 X78.550 Y58.450 E0.2657 F1500
G1 X78.550 Y65.550 E0.2657 F1500
G1 X71.450 Y65.550 E0.2657 F1500
G1 X71.450 Y58.450 E0.2657 F1500
G10
; --- couche 77 / 125 (Z=15.40) ---
G1 Z15.400 F900
G10 ; unretract gere par firmware_retraction
G1 X41.000 Y58.000 F9000
G11
G1 X49.000 Y58.000 E0.2993 F1500
G1 X49.000 Y66.000 E0.2993 F1500
G1 X41.000 Y66.000 E0.2993 F1500
G1 X41.000 Y58.000 E0.2993 F1500
G1 X48.550 Y58.450 E0.2657 F1500
G1 X48.550 Y65.550 E0.2657 F1500
G1 X41.450 Y65.550 E0.2657 F1500
G1 X41.450 Y58.450 E0.2657 F1500
G10
G10 ; unretract gere par firmware_retraction
G1 X71.000 Y58.000 F9000
G11
G1 X79.000 Y58.000 E0.2993 F1500
G1 X79.000 Y66.000 E0.2993 F1500
G1 X71.000 Y66.000 E0.2993 F1500
G1 X71.000 Y58.000 E0.2993 F1500
G1 X78.550 Y58.450 E0.2657 F1500
G1 X78.550 Y65.550 E0.2657 F1500
G1 X71.450 Y65.550 E0.2657 F1500
G1 X71.450 Y58.450 E0.2657 F1500
G10
; --- couche 78 / 125 (Z=15.60) ---
G1 Z15.600 F900
G10 ; unretract gere par firmware_retraction
G1 X41.000 Y58.000 F9000
G11
G1 X49.000 Y58.000 E0.2993 F1500
G1 X49.000 Y66.000 E0.2993 F1500
G1 X41.000 Y66.000 E0.2993 F1500
G1 X41.000 Y58.000 E0.2993 F1500
G1 X48.550 Y58.450 E0.2657 F1500
G1 X48.550 Y65.550 E0.2657 F1500
G1 X41.450 Y65.550 E0.2657 F1500
G1 X41.450 Y58.450 E0.2657 F1500
G10
G10 ; unretract gere par firmware_retraction
G1 X71.000 Y58.000 F9000
G11
G1 X79.000 Y58.000 E0.2993 F1500
G1 X79.000 Y66.000 E0.2993 F1500
G1 X71.000 Y66.000 E0.2993 F1500
G1 X71.000 Y58.000 E0.2993 F1500
G1 X78.550 Y58.450 E0.2657 F1500
G1 X78.550 Y65.550 E0.2657 F1500
G1 X71.450 Y65.550 E0.2657 F1500
G1 X71.450 Y58.450 E0.2657 F1500
G10
; --- couche 79 / 125 (Z=15.80) ---
G1 Z15.800 F900
G10 ; unretract gere par firmware_retraction
G1 X41.000 Y58.000 F9000
G11
G1 X49.000 Y58.000 E0.2993 F1500
G1 X49.000 Y66.000 E0.2993 F1500
G1 X41.000 Y66.000 E0.2993 F1500
G1 X41.000 Y58.000 E0.2993 F1500
G1 X48.550 Y58.450 E0.2657 F1500
G1 X48.550 Y65.550 E0.2657 F1500
G1 X41.450 Y65.550 E0.2657 F1500
G1 X41.450 Y58.450 E0.2657 F1500
G10
G10 ; unretract gere par firmware_retraction
G1 X71.000 Y58.000 F9000
G11
G1 X79.000 Y58.000 E0.2993 F1500
G1 X79.000 Y66.000 E0.2993 F1500
G1 X71.000 Y66.000 E0.2993 F1500
G1 X71.000 Y58.000 E0.2993 F1500
G1 X78.550 Y58.450 E0.2657 F1500
G1 X78.550 Y65.550 E0.2657 F1500
G1 X71.450 Y65.550 E0.2657 F1500
G1 X71.450 Y58.450 E0.2657 F1500
G10
; --- couche 80 / 125 (Z=16.00) ---
G1 Z16.000 F900
G10 ; unretract gere par firmware_retraction
G1 X41.000 Y58.000 F9000
G11
G1 X49.000 Y58.000 E0.2993 F1500
G1 X49.000 Y66.000 E0.2993 F1500
G1 X41.000 Y66.000 E0.2993 F1500
G1 X41.000 Y58.000 E0.2993 F1500
G1 X48.550 Y58.450 E0.2657 F1500
G1 X48.550 Y65.550 E0.2657 F1500
G1 X41.450 Y65.550 E0.2657 F1500
G1 X41.450 Y58.450 E0.2657 F1500
G10
G10 ; unretract gere par firmware_retraction
G1 X71.000 Y58.000 F9000
G11
G1 X79.000 Y58.000 E0.2993 F1500
G1 X79.000 Y66.000 E0.2993 F1500
G1 X71.000 Y66.000 E0.2993 F1500
G1 X71.000 Y58.000 E0.2993 F1500
G1 X78.550 Y58.450 E0.2657 F1500
G1 X78.550 Y65.550 E0.2657 F1500
G1 X71.450 Y65.550 E0.2657 F1500
G1 X71.450 Y58.450 E0.2657 F1500
G10
; --- couche 81 / 125 (Z=16.20) ---
G1 Z16.200 F900
G10 ; unretract gere par firmware_retraction
G1 X41.000 Y58.000 F9000
G11
G1 X49.000 Y58.000 E0.2993 F1500
G1 X49.000 Y66.000 E0.2993 F1500
G1 X41.000 Y66.000 E0.2993 F1500
G1 X41.000 Y58.000 E0.2993 F1500
G1 X48.550 Y58.450 E0.2657 F1500
G1 X48.550 Y65.550 E0.2657 F1500
G1 X41.450 Y65.550 E0.2657 F1500
G1 X41.450 Y58.450 E0.2657 F1500
G10
G10 ; unretract gere par firmware_retraction
G1 X71.000 Y58.000 F9000
G11
G1 X79.000 Y58.000 E0.2993 F1500
G1 X79.000 Y66.000 E0.2993 F1500
G1 X71.000 Y66.000 E0.2993 F1500
G1 X71.000 Y58.000 E0.2993 F1500
G1 X78.550 Y58.450 E0.2657 F1500
G1 X78.550 Y65.550 E0.2657 F1500
G1 X71.450 Y65.550 E0.2657 F1500
G1 X71.450 Y58.450 E0.2657 F1500
G10
; --- couche 82 / 125 (Z=16.40) ---
G1 Z16.400 F900
G10 ; unretract gere par firmware_retraction
G1 X41.000 Y58.000 F9000
G11
G1 X49.000 Y58.000 E0.2993 F1500
G1 X49.000 Y66.000 E0.2993 F1500
G1 X41.000 Y66.000 E0.2993 F1500
G1 X41.000 Y58.000 E0.2993 F1500
G1 X48.550 Y58.450 E0.2657 F1500
G1 X48.550 Y65.550 E0.2657 F1500
G1 X41.450 Y65.550 E0.2657 F1500
G1 X41.450 Y58.450 E0.2657 F1500
G10
G10 ; unretract gere par firmware_retraction
G1 X71.000 Y58.000 F9000
G11
G1 X79.000 Y58.000 E0.2993 F1500
G1 X79.000 Y66.000 E0.2993 F1500
G1 X71.000 Y66.000 E0.2993 F1500
G1 X71.000 Y58.000 E0.2993 F1500
G1 X78.550 Y58.450 E0.2657 F1500
G1 X78.550 Y65.550 E0.2657 F1500
G1 X71.450 Y65.550 E0.2657 F1500
G1 X71.450 Y58.450 E0.2657 F1500
G10
; --- couche 83 / 125 (Z=16.60) ---
G1 Z16.600 F900
G10 ; unretract gere par firmware_retraction
G1 X41.000 Y58.000 F9000
G11
G1 X49.000 Y58.000 E0.2993 F1500
G1 X49.000 Y66.000 E0.2993 F1500
G1 X41.000 Y66.000 E0.2993 F1500
G1 X41.000 Y58.000 E0.2993 F1500
G1 X48.550 Y58.450 E0.2657 F1500
G1 X48.550 Y65.550 E0.2657 F1500
G1 X41.450 Y65.550 E0.2657 F1500
G1 X41.450 Y58.450 E0.2657 F1500
G10
G10 ; unretract gere par firmware_retraction
G1 X71.000 Y58.000 F9000
G11
G1 X79.000 Y58.000 E0.2993 F1500
G1 X79.000 Y66.000 E0.2993 F1500
G1 X71.000 Y66.000 E0.2993 F1500
G1 X71.000 Y58.000 E0.2993 F1500
G1 X78.550 Y58.450 E0.2657 F1500
G1 X78.550 Y65.550 E0.2657 F1500
G1 X71.450 Y65.550 E0.2657 F1500
G1 X71.450 Y58.450 E0.2657 F1500
G10
; --- couche 84 / 125 (Z=16.80) ---
G1 Z16.800 F900
G10 ; unretract gere par firmware_retraction
G1 X41.000 Y58.000 F9000
G11
G1 X49.000 Y58.000 E0.2993 F1500
G1 X49.000 Y66.000 E0.2993 F1500
G1 X41.000 Y66.000 E0.2993 F1500
G1 X41.000 Y58.000 E0.2993 F1500
G1 X48.550 Y58.450 E0.2657 F1500
G1 X48.550 Y65.550 E0.2657 F1500
G1 X41.450 Y65.550 E0.2657 F1500
G1 X41.450 Y58.450 E0.2657 F1500
G10
G10 ; unretract gere par firmware_retraction
G1 X71.000 Y58.000 F9000
G11
G1 X79.000 Y58.000 E0.2993 F1500
G1 X79.000 Y66.000 E0.2993 F1500
G1 X71.000 Y66.000 E0.2993 F1500
G1 X71.000 Y58.000 E0.2993 F1500
G1 X78.550 Y58.450 E0.2657 F1500
G1 X78.550 Y65.550 E0.2657 F1500
G1 X71.450 Y65.550 E0.2657 F1500
G1 X71.450 Y58.450 E0.2657 F1500
G10
; --- couche 85 / 125 (Z=17.00) ---
G1 Z17.000 F900
G10 ; unretract gere par firmware_retraction
G1 X41.000 Y58.000 F9000
G11
G1 X49.000 Y58.000 E0.2993 F1500
G1 X49.000 Y66.000 E0.2993 F1500
G1 X41.000 Y66.000 E0.2993 F1500
G1 X41.000 Y58.000 E0.2993 F1500
G1 X48.550 Y58.450 E0.2657 F1500
G1 X48.550 Y65.550 E0.2657 F1500
G1 X41.450 Y65.550 E0.2657 F1500
G1 X41.450 Y58.450 E0.2657 F1500
G10
G10 ; unretract gere par firmware_retraction
G1 X71.000 Y58.000 F9000
G11
G1 X79.000 Y58.000 E0.2993 F1500
G1 X79.000 Y66.000 E0.2993 F1500
G1 X71.000 Y66.000 E0.2993 F1500
G1 X71.000 Y58.000 E0.2993 F1500
G1 X78.550 Y58.450 E0.2657 F1500
G1 X78.550 Y65.550 E0.2657 F1500
G1 X71.450 Y65.550 E0.2657 F1500
G1 X71.450 Y58.450 E0.2657 F1500
G10
; --- couche 86 / 125 (Z=17.20) ---
G1 Z17.200 F900
G10 ; unretract gere par firmware_retraction
G1 X41.000 Y58.000 F9000
G11
G1 X49.000 Y58.000 E0.2993 F1500
G1 X49.000 Y66.000 E0.2993 F1500
G1 X41.000 Y66.000 E0.2993 F1500
G1 X41.000 Y58.000 E0.2993 F1500
G1 X48.550 Y58.450 E0.2657 F1500
G1 X48.550 Y65.550 E0.2657 F1500
G1 X41.450 Y65.550 E0.2657 F1500
G1 X41.450 Y58.450 E0.2657 F1500
G10
G10 ; unretract gere par firmware_retraction
G1 X71.000 Y58.000 F9000
G11
G1 X79.000 Y58.000 E0.2993 F1500
G1 X79.000 Y66.000 E0.2993 F1500
G1 X71.000 Y66.000 E0.2993 F1500
G1 X71.000 Y58.000 E0.2993 F1500
G1 X78.550 Y58.450 E0.2657 F1500
G1 X78.550 Y65.550 E0.2657 F1500
G1 X71.450 Y65.550 E0.2657 F1500
G1 X71.450 Y58.450 E0.2657 F1500
G10
; --- couche 87 / 125 (Z=17.40) ---
G1 Z17.400 F900
G10 ; unretract gere par firmware_retraction
G1 X41.000 Y58.000 F9000
G11
G1 X49.000 Y58.000 E0.2993 F1500
G1 X49.000 Y66.000 E0.2993 F1500
G1 X41.000 Y66.000 E0.2993 F1500
G1 X41.000 Y58.000 E0.2993 F1500
G1 X48.550 Y58.450 E0.2657 F1500
G1 X48.550 Y65.550 E0.2657 F1500
G1 X41.450 Y65.550 E0.2657 F1500
G1 X41.450 Y58.450 E0.2657 F1500
G10
G10 ; unretract gere par firmware_retraction
G1 X71.000 Y58.000 F9000
G11
G1 X79.000 Y58.000 E0.2993 F1500
G1 X79.000 Y66.000 E0.2993 F1500
G1 X71.000 Y66.000 E0.2993 F1500
G1 X71.000 Y58.000 E0.2993 F1500
G1 X78.550 Y58.450 E0.2657 F1500
G1 X78.550 Y65.550 E0.2657 F1500
G1 X71.450 Y65.550 E0.2657 F1500
G1 X71.450 Y58.450 E0.2657 F1500
G10
; --- couche 88 / 125 (Z=17.60) ---
G1 Z17.600 F900
G10 ; unretract gere par firmware_retraction
G1 X41.000 Y58.000 F9000
G11
G1 X49.000 Y58.000 E0.2993 F1500
G1 X49.000 Y66.000 E0.2993 F1500
G1 X41.000 Y66.000 E0.2993 F1500
G1 X41.000 Y58.000 E0.2993 F1500
G1 X48.550 Y58.450 E0.2657 F1500
G1 X48.550 Y65.550 E0.2657 F1500
G1 X41.450 Y65.550 E0.2657 F1500
G1 X41.450 Y58.450 E0.2657 F1500
G10
G10 ; unretract gere par firmware_retraction
G1 X71.000 Y58.000 F9000
G11
G1 X79.000 Y58.000 E0.2993 F1500
G1 X79.000 Y66.000 E0.2993 F1500
G1 X71.000 Y66.000 E0.2993 F1500
G1 X71.000 Y58.000 E0.2993 F1500
G1 X78.550 Y58.450 E0.2657 F1500
G1 X78.550 Y65.550 E0.2657 F1500
G1 X71.450 Y65.550 E0.2657 F1500
G1 X71.450 Y58.450 E0.2657 F1500
G10
; --- couche 89 / 125 (Z=17.80) ---
G1 Z17.800 F900
G10 ; unretract gere par firmware_retraction
G1 X41.000 Y58.000 F9000
G11
G1 X49.000 Y58.000 E0.2993 F1500
G1 X49.000 Y66.000 E0.2993 F1500
G1 X41.000 Y66.000 E0.2993 F1500
G1 X41.000 Y58.000 E0.2993 F1500
G1 X48.550 Y58.450 E0.2657 F1500
G1 X48.550 Y65.550 E0.2657 F1500
G1 X41.450 Y65.550 E0.2657 F1500
G1 X41.450 Y58.450 E0.2657 F1500
G10
G10 ; unretract gere par firmware_retraction
G1 X71.000 Y58.000 F9000
G11
G1 X79.000 Y58.000 E0.2993 F1500
G1 X79.000 Y66.000 E0.2993 F1500
G1 X71.000 Y66.000 E0.2993 F1500
G1 X71.000 Y58.000 E0.2993 F1500
G1 X78.550 Y58.450 E0.2657 F1500
G1 X78.550 Y65.550 E0.2657 F1500
G1 X71.450 Y65.550 E0.2657 F1500
G1 X71.450 Y58.450 E0.2657 F1500
G10
; --- couche 90 / 125 (Z=18.00) ---
G1 Z18.000 F900
G10 ; unretract gere par firmware_retraction
G1 X41.000 Y58.000 F9000
G11
G1 X49.000 Y58.000 E0.2993 F1500
G1 X49.000 Y66.000 E0.2993 F1500
G1 X41.000 Y66.000 E0.2993 F1500
G1 X41.000 Y58.000 E0.2993 F1500
G1 X48.550 Y58.450 E0.2657 F1500
G1 X48.550 Y65.550 E0.2657 F1500
G1 X41.450 Y65.550 E0.2657 F1500
G1 X41.450 Y58.450 E0.2657 F1500
G10
G10 ; unretract gere par firmware_retraction
G1 X71.000 Y58.000 F9000
G11
G1 X79.000 Y58.000 E0.2993 F1500
G1 X79.000 Y66.000 E0.2993 F1500
G1 X71.000 Y66.000 E0.2993 F1500
G1 X71.000 Y58.000 E0.2993 F1500
G1 X78.550 Y58.450 E0.2657 F1500
G1 X78.550 Y65.550 E0.2657 F1500
G1 X71.450 Y65.550 E0.2657 F1500
G1 X71.450 Y58.450 E0.2657 F1500
G10
; --- couche 91 / 125 (Z=18.20) ---
G1 Z18.200 F900
G10 ; unretract gere par firmware_retraction
G1 X41.000 Y58.000 F9000
G11
G1 X49.000 Y58.000 E0.2993 F1500
G1 X49.000 Y66.000 E0.2993 F1500
G1 X41.000 Y66.000 E0.2993 F1500
G1 X41.000 Y58.000 E0.2993 F1500
G1 X48.550 Y58.450 E0.2657 F1500
G1 X48.550 Y65.550 E0.2657 F1500
G1 X41.450 Y65.550 E0.2657 F1500
G1 X41.450 Y58.450 E0.2657 F1500
G10
G10 ; unretract gere par firmware_retraction
G1 X71.000 Y58.000 F9000
G11
G1 X79.000 Y58.000 E0.2993 F1500
G1 X79.000 Y66.000 E0.2993 F1500
G1 X71.000 Y66.000 E0.2993 F1500
G1 X71.000 Y58.000 E0.2993 F1500
G1 X78.550 Y58.450 E0.2657 F1500
G1 X78.550 Y65.550 E0.2657 F1500
G1 X71.450 Y65.550 E0.2657 F1500
G1 X71.450 Y58.450 E0.2657 F1500
G10
; --- couche 92 / 125 (Z=18.40) ---
G1 Z18.400 F900
G10 ; unretract gere par firmware_retraction
G1 X41.000 Y58.000 F9000
G11
G1 X49.000 Y58.000 E0.2993 F1500
G1 X49.000 Y66.000 E0.2993 F1500
G1 X41.000 Y66.000 E0.2993 F1500
G1 X41.000 Y58.000 E0.2993 F1500
G1 X48.550 Y58.450 E0.2657 F1500
G1 X48.550 Y65.550 E0.2657 F1500
G1 X41.450 Y65.550 E0.2657 F1500
G1 X41.450 Y58.450 E0.2657 F1500
G10
G10 ; unretract gere par firmware_retraction
G1 X71.000 Y58.000 F9000
G11
G1 X79.000 Y58.000 E0.2993 F1500
G1 X79.000 Y66.000 E0.2993 F1500
G1 X71.000 Y66.000 E0.2993 F1500
G1 X71.000 Y58.000 E0.2993 F1500
G1 X78.550 Y58.450 E0.2657 F1500
G1 X78.550 Y65.550 E0.2657 F1500
G1 X71.450 Y65.550 E0.2657 F1500
G1 X71.450 Y58.450 E0.2657 F1500
G10
; --- couche 93 / 125 (Z=18.60) ---
G1 Z18.600 F900
G10 ; unretract gere par firmware_retraction
G1 X41.000 Y58.000 F9000
G11
G1 X49.000 Y58.000 E0.2993 F1500
G1 X49.000 Y66.000 E0.2993 F1500
G1 X41.000 Y66.000 E0.2993 F1500
G1 X41.000 Y58.000 E0.2993 F1500
G1 X48.550 Y58.450 E0.2657 F1500
G1 X48.550 Y65.550 E0.2657 F1500
G1 X41.450 Y65.550 E0.2657 F1500
G1 X41.450 Y58.450 E0.2657 F1500
G10
G10 ; unretract gere par firmware_retraction
G1 X71.000 Y58.000 F9000
G11
G1 X79.000 Y58.000 E0.2993 F1500
G1 X79.000 Y66.000 E0.2993 F1500
G1 X71.000 Y66.000 E0.2993 F1500
G1 X71.000 Y58.000 E0.2993 F1500
G1 X78.550 Y58.450 E0.2657 F1500
G1 X78.550 Y65.550 E0.2657 F1500
G1 X71.450 Y65.550 E0.2657 F1500
G1 X71.450 Y58.450 E0.2657 F1500
G10
; --- couche 94 / 125 (Z=18.80) ---
G1 Z18.800 F900
G10 ; unretract gere par firmware_retraction
G1 X41.000 Y58.000 F9000
G11
G1 X49.000 Y58.000 E0.2993 F1500
G1 X49.000 Y66.000 E0.2993 F1500
G1 X41.000 Y66.000 E0.2993 F1500
G1 X41.000 Y58.000 E0.2993 F1500
G1 X48.550 Y58.450 E0.2657 F1500
G1 X48.550 Y65.550 E0.2657 F1500
G1 X41.450 Y65.550 E0.2657 F1500
G1 X41.450 Y58.450 E0.2657 F1500
G10
G10 ; unretract gere par firmware_retraction
G1 X71.000 Y58.000 F9000
G11
G1 X79.000 Y58.000 E0.2993 F1500
G1 X79.000 Y66.000 E0.2993 F1500
G1 X71.000 Y66.000 E0.2993 F1500
G1 X71.000 Y58.000 E0.2993 F1500
G1 X78.550 Y58.450 E0.2657 F1500
G1 X78.550 Y65.550 E0.2657 F1500
G1 X71.450 Y65.550 E0.2657 F1500
G1 X71.450 Y58.450 E0.2657 F1500
G10
; --- couche 95 / 125 (Z=19.00) ---
G1 Z19.000 F900
G10 ; unretract gere par firmware_retraction
G1 X41.000 Y58.000 F9000
G11
G1 X49.000 Y58.000 E0.2993 F1500
G1 X49.000 Y66.000 E0.2993 F1500
G1 X41.000 Y66.000 E0.2993 F1500
G1 X41.000 Y58.000 E0.2993 F1500
G1 X48.550 Y58.450 E0.2657 F1500
G1 X48.550 Y65.550 E0.2657 F1500
G1 X41.450 Y65.550 E0.2657 F1500
G1 X41.450 Y58.450 E0.2657 F1500
G10
G10 ; unretract gere par firmware_retraction
G1 X71.000 Y58.000 F9000
G11
G1 X79.000 Y58.000 E0.2993 F1500
G1 X79.000 Y66.000 E0.2993 F1500
G1 X71.000 Y66.000 E0.2993 F1500
G1 X71.000 Y58.000 E0.2993 F1500
G1 X78.550 Y58.450 E0.2657 F1500
G1 X78.550 Y65.550 E0.2657 F1500
G1 X71.450 Y65.550 E0.2657 F1500
G1 X71.450 Y58.450 E0.2657 F1500
G10
; --- couche 96 / 125 (Z=19.20) ---
G1 Z19.200 F900
G10 ; unretract gere par firmware_retraction
G1 X41.000 Y58.000 F9000
G11
G1 X49.000 Y58.000 E0.2993 F1500
G1 X49.000 Y66.000 E0.2993 F1500
G1 X41.000 Y66.000 E0.2993 F1500
G1 X41.000 Y58.000 E0.2993 F1500
G1 X48.550 Y58.450 E0.2657 F1500
G1 X48.550 Y65.550 E0.2657 F1500
G1 X41.450 Y65.550 E0.2657 F1500
G1 X41.450 Y58.450 E0.2657 F1500
G10
G10 ; unretract gere par firmware_retraction
G1 X71.000 Y58.000 F9000
G11
G1 X79.000 Y58.000 E0.2993 F1500
G1 X79.000 Y66.000 E0.2993 F1500
G1 X71.000 Y66.000 E0.2993 F1500
G1 X71.000 Y58.000 E0.2993 F1500
G1 X78.550 Y58.450 E0.2657 F1500
G1 X78.550 Y65.550 E0.2657 F1500
G1 X71.450 Y65.550 E0.2657 F1500
G1 X71.450 Y58.450 E0.2657 F1500
G10
; --- couche 97 / 125 (Z=19.40) ---
G1 Z19.400 F900
G10 ; unretract gere par firmware_retraction
G1 X41.000 Y58.000 F9000
G11
G1 X49.000 Y58.000 E0.2993 F1500
G1 X49.000 Y66.000 E0.2993 F1500
G1 X41.000 Y66.000 E0.2993 F1500
G1 X41.000 Y58.000 E0.2993 F1500
G1 X48.550 Y58.450 E0.2657 F1500
G1 X48.550 Y65.550 E0.2657 F1500
G1 X41.450 Y65.550 E0.2657 F1500
G1 X41.450 Y58.450 E0.2657 F1500
G10
G10 ; unretract gere par firmware_retraction
G1 X71.000 Y58.000 F9000
G11
G1 X79.000 Y58.000 E0.2993 F1500
G1 X79.000 Y66.000 E0.2993 F1500
G1 X71.000 Y66.000 E0.2993 F1500
G1 X71.000 Y58.000 E0.2993 F1500
G1 X78.550 Y58.450 E0.2657 F1500
G1 X78.550 Y65.550 E0.2657 F1500
G1 X71.450 Y65.550 E0.2657 F1500
G1 X71.450 Y58.450 E0.2657 F1500
G10
; --- couche 98 / 125 (Z=19.60) ---
G1 Z19.600 F900
G10 ; unretract gere par firmware_retraction
G1 X41.000 Y58.000 F9000
G11
G1 X49.000 Y58.000 E0.2993 F1500
G1 X49.000 Y66.000 E0.2993 F1500
G1 X41.000 Y66.000 E0.2993 F1500
G1 X41.000 Y58.000 E0.2993 F1500
G1 X48.550 Y58.450 E0.2657 F1500
G1 X48.550 Y65.550 E0.2657 F1500
G1 X41.450 Y65.550 E0.2657 F1500
G1 X41.450 Y58.450 E0.2657 F1500
G10
G10 ; unretract gere par firmware_retraction
G1 X71.000 Y58.000 F9000
G11
G1 X79.000 Y58.000 E0.2993 F1500
G1 X79.000 Y66.000 E0.2993 F1500
G1 X71.000 Y66.000 E0.2993 F1500
G1 X71.000 Y58.000 E0.2993 F1500
G1 X78.550 Y58.450 E0.2657 F1500
G1 X78.550 Y65.550 E0.2657 F1500
G1 X71.450 Y65.550 E0.2657 F1500
G1 X71.450 Y58.450 E0.2657 F1500
G10
; --- couche 99 / 125 (Z=19.80) ---
G1 Z19.800 F900
G10 ; unretract gere par firmware_retraction
G1 X41.000 Y58.000 F9000
G11
G1 X49.000 Y58.000 E0.2993 F1500
G1 X49.000 Y66.000 E0.2993 F1500
G1 X41.000 Y66.000 E0.2993 F1500
G1 X41.000 Y58.000 E0.2993 F1500
G1 X48.550 Y58.450 E0.2657 F1500
G1 X48.550 Y65.550 E0.2657 F1500
G1 X41.450 Y65.550 E0.2657 F1500
G1 X41.450 Y58.450 E0.2657 F1500
G10
G10 ; unretract gere par firmware_retraction
G1 X71.000 Y58.000 F9000
G11
G1 X79.000 Y58.000 E0.2993 F1500
G1 X79.000 Y66.000 E0.2993 F1500
G1 X71.000 Y66.000 E0.2993 F1500
G1 X71.000 Y58.000 E0.2993 F1500
G1 X78.550 Y58.450 E0.2657 F1500
G1 X78.550 Y65.550 E0.2657 F1500
G1 X71.450 Y65.550 E0.2657 F1500
G1 X71.450 Y58.450 E0.2657 F1500
G10
; --- couche 100 / 125 (Z=20.00) ---
G1 Z20.000 F900
G10 ; unretract gere par firmware_retraction
G1 X41.000 Y58.000 F9000
G11
G1 X49.000 Y58.000 E0.2993 F1500
G1 X49.000 Y66.000 E0.2993 F1500
G1 X41.000 Y66.000 E0.2993 F1500
G1 X41.000 Y58.000 E0.2993 F1500
G1 X48.550 Y58.450 E0.2657 F1500
G1 X48.550 Y65.550 E0.2657 F1500
G1 X41.450 Y65.550 E0.2657 F1500
G1 X41.450 Y58.450 E0.2657 F1500
G10
G10 ; unretract gere par firmware_retraction
G1 X71.000 Y58.000 F9000
G11
G1 X79.000 Y58.000 E0.2993 F1500
G1 X79.000 Y66.000 E0.2993 F1500
G1 X71.000 Y66.000 E0.2993 F1500
G1 X71.000 Y58.000 E0.2993 F1500
G1 X78.550 Y58.450 E0.2657 F1500
G1 X78.550 Y65.550 E0.2657 F1500
G1 X71.450 Y65.550 E0.2657 F1500
G1 X71.450 Y58.450 E0.2657 F1500
G10
; --- couche 101 / 125 (Z=20.20) ---
G1 Z20.200 F900
G10 ; unretract gere par firmware_retraction
G1 X41.000 Y58.000 F9000
G11
G1 X49.000 Y58.000 E0.2993 F1500
G1 X49.000 Y66.000 E0.2993 F1500
G1 X41.000 Y66.000 E0.2993 F1500
G1 X41.000 Y58.000 E0.2993 F1500
G1 X48.550 Y58.450 E0.2657 F1500
G1 X48.550 Y65.550 E0.2657 F1500
G1 X41.450 Y65.550 E0.2657 F1500
G1 X41.450 Y58.450 E0.2657 F1500
G10
G10 ; unretract gere par firmware_retraction
G1 X71.000 Y58.000 F9000
G11
G1 X79.000 Y58.000 E0.2993 F1500
G1 X79.000 Y66.000 E0.2993 F1500
G1 X71.000 Y66.000 E0.2993 F1500
G1 X71.000 Y58.000 E0.2993 F1500
G1 X78.550 Y58.450 E0.2657 F1500
G1 X78.550 Y65.550 E0.2657 F1500
G1 X71.450 Y65.550 E0.2657 F1500
G1 X71.450 Y58.450 E0.2657 F1500
G10
; --- couche 102 / 125 (Z=20.40) ---
G1 Z20.400 F900
G10 ; unretract gere par firmware_retraction
G1 X41.000 Y58.000 F9000
G11
G1 X49.000 Y58.000 E0.2993 F1500
G1 X49.000 Y66.000 E0.2993 F1500
G1 X41.000 Y66.000 E0.2993 F1500
G1 X41.000 Y58.000 E0.2993 F1500
G1 X48.550 Y58.450 E0.2657 F1500
G1 X48.550 Y65.550 E0.2657 F1500
G1 X41.450 Y65.550 E0.2657 F1500
G1 X41.450 Y58.450 E0.2657 F1500
G10
G10 ; unretract gere par firmware_retraction
G1 X71.000 Y58.000 F9000
G11
G1 X79.000 Y58.000 E0.2993 F1500
G1 X79.000 Y66.000 E0.2993 F1500
G1 X71.000 Y66.000 E0.2993 F1500
G1 X71.000 Y58.000 E0.2993 F1500
G1 X78.550 Y58.450 E0.2657 F1500
G1 X78.550 Y65.550 E0.2657 F1500
G1 X71.450 Y65.550 E0.2657 F1500
G1 X71.450 Y58.450 E0.2657 F1500
G10
; --- couche 103 / 125 (Z=20.60) ---
G1 Z20.600 F900
G10 ; unretract gere par firmware_retraction
G1 X41.000 Y58.000 F9000
G11
G1 X49.000 Y58.000 E0.2993 F1500
G1 X49.000 Y66.000 E0.2993 F1500
G1 X41.000 Y66.000 E0.2993 F1500
G1 X41.000 Y58.000 E0.2993 F1500
G1 X48.550 Y58.450 E0.2657 F1500
G1 X48.550 Y65.550 E0.2657 F1500
G1 X41.450 Y65.550 E0.2657 F1500
G1 X41.450 Y58.450 E0.2657 F1500
G10
G10 ; unretract gere par firmware_retraction
G1 X71.000 Y58.000 F9000
G11
G1 X79.000 Y58.000 E0.2993 F1500
G1 X79.000 Y66.000 E0.2993 F1500
G1 X71.000 Y66.000 E0.2993 F1500
G1 X71.000 Y58.000 E0.2993 F1500
G1 X78.550 Y58.450 E0.2657 F1500
G1 X78.550 Y65.550 E0.2657 F1500
G1 X71.450 Y65.550 E0.2657 F1500
G1 X71.450 Y58.450 E0.2657 F1500
G10
; --- couche 104 / 125 (Z=20.80) ---
G1 Z20.800 F900
G10 ; unretract gere par firmware_retraction
G1 X41.000 Y58.000 F9000
G11
G1 X49.000 Y58.000 E0.2993 F1500
G1 X49.000 Y66.000 E0.2993 F1500
G1 X41.000 Y66.000 E0.2993 F1500
G1 X41.000 Y58.000 E0.2993 F1500
G1 X48.550 Y58.450 E0.2657 F1500
G1 X48.550 Y65.550 E0.2657 F1500
G1 X41.450 Y65.550 E0.2657 F1500
G1 X41.450 Y58.450 E0.2657 F1500
G10
G10 ; unretract gere par firmware_retraction
G1 X71.000 Y58.000 F9000
G11
G1 X79.000 Y58.000 E0.2993 F1500
G1 X79.000 Y66.000 E0.2993 F1500
G1 X71.000 Y66.000 E0.2993 F1500
G1 X71.000 Y58.000 E0.2993 F1500
G1 X78.550 Y58.450 E0.2657 F1500
G1 X78.550 Y65.550 E0.2657 F1500
G1 X71.450 Y65.550 E0.2657 F1500
G1 X71.450 Y58.450 E0.2657 F1500
G10
; --- couche 105 / 125 (Z=21.00) ---
G1 Z21.000 F900
G10 ; unretract gere par firmware_retraction
G1 X41.000 Y58.000 F9000
G11
G1 X49.000 Y58.000 E0.2993 F1500
G1 X49.000 Y66.000 E0.2993 F1500
G1 X41.000 Y66.000 E0.2993 F1500
G1 X41.000 Y58.000 E0.2993 F1500
G1 X48.550 Y58.450 E0.2657 F1500
G1 X48.550 Y65.550 E0.2657 F1500
G1 X41.450 Y65.550 E0.2657 F1500
G1 X41.450 Y58.450 E0.2657 F1500
G10
G10 ; unretract gere par firmware_retraction
G1 X71.000 Y58.000 F9000
G11
G1 X79.000 Y58.000 E0.2993 F1500
G1 X79.000 Y66.000 E0.2993 F1500
G1 X71.000 Y66.000 E0.2993 F1500
G1 X71.000 Y58.000 E0.2993 F1500
G1 X78.550 Y58.450 E0.2657 F1500
G1 X78.550 Y65.550 E0.2657 F1500
G1 X71.450 Y65.550 E0.2657 F1500
G1 X71.450 Y58.450 E0.2657 F1500
G10
; --- couche 106 / 125 (Z=21.20) ---
G1 Z21.200 F900
G10 ; unretract gere par firmware_retraction
G1 X41.000 Y58.000 F9000
G11
G1 X49.000 Y58.000 E0.2993 F1500
G1 X49.000 Y66.000 E0.2993 F1500
G1 X41.000 Y66.000 E0.2993 F1500
G1 X41.000 Y58.000 E0.2993 F1500
G1 X48.550 Y58.450 E0.2657 F1500
G1 X48.550 Y65.550 E0.2657 F1500
G1 X41.450 Y65.550 E0.2657 F1500
G1 X41.450 Y58.450 E0.2657 F1500
G10
G10 ; unretract gere par firmware_retraction
G1 X71.000 Y58.000 F9000
G11
G1 X79.000 Y58.000 E0.2993 F1500
G1 X79.000 Y66.000 E0.2993 F1500
G1 X71.000 Y66.000 E0.2993 F1500
G1 X71.000 Y58.000 E0.2993 F1500
G1 X78.550 Y58.450 E0.2657 F1500
G1 X78.550 Y65.550 E0.2657 F1500
G1 X71.450 Y65.550 E0.2657 F1500
G1 X71.450 Y58.450 E0.2657 F1500
G10
; --- couche 107 / 125 (Z=21.40) ---
G1 Z21.400 F900
G10 ; unretract gere par firmware_retraction
G1 X41.000 Y58.000 F9000
G11
G1 X49.000 Y58.000 E0.2993 F1500
G1 X49.000 Y66.000 E0.2993 F1500
G1 X41.000 Y66.000 E0.2993 F1500
G1 X41.000 Y58.000 E0.2993 F1500
G1 X48.550 Y58.450 E0.2657 F1500
G1 X48.550 Y65.550 E0.2657 F1500
G1 X41.450 Y65.550 E0.2657 F1500
G1 X41.450 Y58.450 E0.2657 F1500
G10
G10 ; unretract gere par firmware_retraction
G1 X71.000 Y58.000 F9000
G11
G1 X79.000 Y58.000 E0.2993 F1500
G1 X79.000 Y66.000 E0.2993 F1500
G1 X71.000 Y66.000 E0.2993 F1500
G1 X71.000 Y58.000 E0.2993 F1500
G1 X78.550 Y58.450 E0.2657 F1500
G1 X78.550 Y65.550 E0.2657 F1500
G1 X71.450 Y65.550 E0.2657 F1500
G1 X71.450 Y58.450 E0.2657 F1500
G10
; --- couche 108 / 125 (Z=21.60) ---
G1 Z21.600 F900
G10 ; unretract gere par firmware_retraction
G1 X41.000 Y58.000 F9000
G11
G1 X49.000 Y58.000 E0.2993 F1500
G1 X49.000 Y66.000 E0.2993 F1500
G1 X41.000 Y66.000 E0.2993 F1500
G1 X41.000 Y58.000 E0.2993 F1500
G1 X48.550 Y58.450 E0.2657 F1500
G1 X48.550 Y65.550 E0.2657 F1500
G1 X41.450 Y65.550 E0.2657 F1500
G1 X41.450 Y58.450 E0.2657 F1500
G10
G10 ; unretract gere par firmware_retraction
G1 X71.000 Y58.000 F9000
G11
G1 X79.000 Y58.000 E0.2993 F1500
G1 X79.000 Y66.000 E0.2993 F1500
G1 X71.000 Y66.000 E0.2993 F1500
G1 X71.000 Y58.000 E0.2993 F1500
G1 X78.550 Y58.450 E0.2657 F1500
G1 X78.550 Y65.550 E0.2657 F1500
G1 X71.450 Y65.550 E0.2657 F1500
G1 X71.450 Y58.450 E0.2657 F1500
G10
; --- couche 109 / 125 (Z=21.80) ---
G1 Z21.800 F900
G10 ; unretract gere par firmware_retraction
G1 X41.000 Y58.000 F9000
G11
G1 X49.000 Y58.000 E0.2993 F1500
G1 X49.000 Y66.000 E0.2993 F1500
G1 X41.000 Y66.000 E0.2993 F1500
G1 X41.000 Y58.000 E0.2993 F1500
G1 X48.550 Y58.450 E0.2657 F1500
G1 X48.550 Y65.550 E0.2657 F1500
G1 X41.450 Y65.550 E0.2657 F1500
G1 X41.450 Y58.450 E0.2657 F1500
G10
G10 ; unretract gere par firmware_retraction
G1 X71.000 Y58.000 F9000
G11
G1 X79.000 Y58.000 E0.2993 F1500
G1 X79.000 Y66.000 E0.2993 F1500
G1 X71.000 Y66.000 E0.2993 F1500
G1 X71.000 Y58.000 E0.2993 F1500
G1 X78.550 Y58.450 E0.2657 F1500
G1 X78.550 Y65.550 E0.2657 F1500
G1 X71.450 Y65.550 E0.2657 F1500
G1 X71.450 Y58.450 E0.2657 F1500
G10
; --- couche 110 / 125 (Z=22.00) ---
G1 Z22.000 F900
G10 ; unretract gere par firmware_retraction
G1 X41.000 Y58.000 F9000
G11
G1 X49.000 Y58.000 E0.2993 F1500
G1 X49.000 Y66.000 E0.2993 F1500
G1 X41.000 Y66.000 E0.2993 F1500
G1 X41.000 Y58.000 E0.2993 F1500
G1 X48.550 Y58.450 E0.2657 F1500
G1 X48.550 Y65.550 E0.2657 F1500
G1 X41.450 Y65.550 E0.2657 F1500
G1 X41.450 Y58.450 E0.2657 F1500
G10
G10 ; unretract gere par firmware_retraction
G1 X71.000 Y58.000 F9000
G11
G1 X79.000 Y58.000 E0.2993 F1500
G1 X79.000 Y66.000 E0.2993 F1500
G1 X71.000 Y66.000 E0.2993 F1500
G1 X71.000 Y58.000 E0.2993 F1500
G1 X78.550 Y58.450 E0.2657 F1500
G1 X78.550 Y65.550 E0.2657 F1500
G1 X71.450 Y65.550 E0.2657 F1500
G1 X71.450 Y58.450 E0.2657 F1500
G10
; --- couche 111 / 125 (Z=22.20) ---
G1 Z22.200 F900
G10 ; unretract gere par firmware_retraction
G1 X41.000 Y58.000 F9000
G11
G1 X49.000 Y58.000 E0.2993 F1500
G1 X49.000 Y66.000 E0.2993 F1500
G1 X41.000 Y66.000 E0.2993 F1500
G1 X41.000 Y58.000 E0.2993 F1500
G1 X48.550 Y58.450 E0.2657 F1500
G1 X48.550 Y65.550 E0.2657 F1500
G1 X41.450 Y65.550 E0.2657 F1500
G1 X41.450 Y58.450 E0.2657 F1500
G10
G10 ; unretract gere par firmware_retraction
G1 X71.000 Y58.000 F9000
G11
G1 X79.000 Y58.000 E0.2993 F1500
G1 X79.000 Y66.000 E0.2993 F1500
G1 X71.000 Y66.000 E0.2993 F1500
G1 X71.000 Y58.000 E0.2993 F1500
G1 X78.550 Y58.450 E0.2657 F1500
G1 X78.550 Y65.550 E0.2657 F1500
G1 X71.450 Y65.550 E0.2657 F1500
G1 X71.450 Y58.450 E0.2657 F1500
G10
; --- couche 112 / 125 (Z=22.40) ---
G1 Z22.400 F900
G10 ; unretract gere par firmware_retraction
G1 X41.000 Y58.000 F9000
G11
G1 X49.000 Y58.000 E0.2993 F1500
G1 X49.000 Y66.000 E0.2993 F1500
G1 X41.000 Y66.000 E0.2993 F1500
G1 X41.000 Y58.000 E0.2993 F1500
G1 X48.550 Y58.450 E0.2657 F1500
G1 X48.550 Y65.550 E0.2657 F1500
G1 X41.450 Y65.550 E0.2657 F1500
G1 X41.450 Y58.450 E0.2657 F1500
G10
G10 ; unretract gere par firmware_retraction
G1 X71.000 Y58.000 F9000
G11
G1 X79.000 Y58.000 E0.2993 F1500
G1 X79.000 Y66.000 E0.2993 F1500
G1 X71.000 Y66.000 E0.2993 F1500
G1 X71.000 Y58.000 E0.2993 F1500
G1 X78.550 Y58.450 E0.2657 F1500
G1 X78.550 Y65.550 E0.2657 F1500
G1 X71.450 Y65.550 E0.2657 F1500
G1 X71.450 Y58.450 E0.2657 F1500
G10
; --- couche 113 / 125 (Z=22.60) ---
G1 Z22.600 F900
G10 ; unretract gere par firmware_retraction
G1 X41.000 Y58.000 F9000
G11
G1 X49.000 Y58.000 E0.2993 F1500
G1 X49.000 Y66.000 E0.2993 F1500
G1 X41.000 Y66.000 E0.2993 F1500
G1 X41.000 Y58.000 E0.2993 F1500
G1 X48.550 Y58.450 E0.2657 F1500
G1 X48.550 Y65.550 E0.2657 F1500
G1 X41.450 Y65.550 E0.2657 F1500
G1 X41.450 Y58.450 E0.2657 F1500
G10
G10 ; unretract gere par firmware_retraction
G1 X71.000 Y58.000 F9000
G11
G1 X79.000 Y58.000 E0.2993 F1500
G1 X79.000 Y66.000 E0.2993 F1500
G1 X71.000 Y66.000 E0.2993 F1500
G1 X71.000 Y58.000 E0.2993 F1500
G1 X78.550 Y58.450 E0.2657 F1500
G1 X78.550 Y65.550 E0.2657 F1500
G1 X71.450 Y65.550 E0.2657 F1500
G1 X71.450 Y58.450 E0.2657 F1500
G10
; --- couche 114 / 125 (Z=22.80) ---
G1 Z22.800 F900
G10 ; unretract gere par firmware_retraction
G1 X41.000 Y58.000 F9000
G11
G1 X49.000 Y58.000 E0.2993 F1500
G1 X49.000 Y66.000 E0.2993 F1500
G1 X41.000 Y66.000 E0.2993 F1500
G1 X41.000 Y58.000 E0.2993 F1500
G1 X48.550 Y58.450 E0.2657 F1500
G1 X48.550 Y65.550 E0.2657 F1500
G1 X41.450 Y65.550 E0.2657 F1500
G1 X41.450 Y58.450 E0.2657 F1500
G10
G10 ; unretract gere par firmware_retraction
G1 X71.000 Y58.000 F9000
G11
G1 X79.000 Y58.000 E0.2993 F1500
G1 X79.000 Y66.000 E0.2993 F1500
G1 X71.000 Y66.000 E0.2993 F1500
G1 X71.000 Y58.000 E0.2993 F1500
G1 X78.550 Y58.450 E0.2657 F1500
G1 X78.550 Y65.550 E0.2657 F1500
G1 X71.450 Y65.550 E0.2657 F1500
G1 X71.450 Y58.450 E0.2657 F1500
G10
; --- couche 115 / 125 (Z=23.00) ---
G1 Z23.000 F900
G10 ; unretract gere par firmware_retraction
G1 X41.000 Y58.000 F9000
G11
G1 X49.000 Y58.000 E0.2993 F1500
G1 X49.000 Y66.000 E0.2993 F1500
G1 X41.000 Y66.000 E0.2993 F1500
G1 X41.000 Y58.000 E0.2993 F1500
G1 X48.550 Y58.450 E0.2657 F1500
G1 X48.550 Y65.550 E0.2657 F1500
G1 X41.450 Y65.550 E0.2657 F1500
G1 X41.450 Y58.450 E0.2657 F1500
G10
G10 ; unretract gere par firmware_retraction
G1 X71.000 Y58.000 F9000
G11
G1 X79.000 Y58.000 E0.2993 F1500
G1 X79.000 Y66.000 E0.2993 F1500
G1 X71.000 Y66.000 E0.2993 F1500
G1 X71.000 Y58.000 E0.2993 F1500
G1 X78.550 Y58.450 E0.2657 F1500
G1 X78.550 Y65.550 E0.2657 F1500
G1 X71.450 Y65.550 E0.2657 F1500
G1 X71.450 Y58.450 E0.2657 F1500
G10
; --- couche 116 / 125 (Z=23.20) ---
G1 Z23.200 F900
G10 ; unretract gere par firmware_retraction
G1 X41.000 Y58.000 F9000
G11
G1 X49.000 Y58.000 E0.2993 F1500
G1 X49.000 Y66.000 E0.2993 F1500
G1 X41.000 Y66.000 E0.2993 F1500
G1 X41.000 Y58.000 E0.2993 F1500
G1 X48.550 Y58.450 E0.2657 F1500
G1 X48.550 Y65.550 E0.2657 F1500
G1 X41.450 Y65.550 E0.2657 F1500
G1 X41.450 Y58.450 E0.2657 F1500
G10
G10 ; unretract gere par firmware_retraction
G1 X71.000 Y58.000 F9000
G11
G1 X79.000 Y58.000 E0.2993 F1500
G1 X79.000 Y66.000 E0.2993 F1500
G1 X71.000 Y66.000 E0.2993 F1500
G1 X71.000 Y58.000 E0.2993 F1500
G1 X78.550 Y58.450 E0.2657 F1500
G1 X78.550 Y65.550 E0.2657 F1500
G1 X71.450 Y65.550 E0.2657 F1500
G1 X71.450 Y58.450 E0.2657 F1500
G10
; --- couche 117 / 125 (Z=23.40) ---
G1 Z23.400 F900
G10 ; unretract gere par firmware_retraction
G1 X41.000 Y58.000 F9000
G11
G1 X49.000 Y58.000 E0.2993 F1500
G1 X49.000 Y66.000 E0.2993 F1500
G1 X41.000 Y66.000 E0.2993 F1500
G1 X41.000 Y58.000 E0.2993 F1500
G1 X48.550 Y58.450 E0.2657 F1500
G1 X48.550 Y65.550 E0.2657 F1500
G1 X41.450 Y65.550 E0.2657 F1500
G1 X41.450 Y58.450 E0.2657 F1500
G10
G10 ; unretract gere par firmware_retraction
G1 X71.000 Y58.000 F9000
G11
G1 X79.000 Y58.000 E0.2993 F1500
G1 X79.000 Y66.000 E0.2993 F1500
G1 X71.000 Y66.000 E0.2993 F1500
G1 X71.000 Y58.000 E0.2993 F1500
G1 X78.550 Y58.450 E0.2657 F1500
G1 X78.550 Y65.550 E0.2657 F1500
G1 X71.450 Y65.550 E0.2657 F1500
G1 X71.450 Y58.450 E0.2657 F1500
G10
; --- couche 118 / 125 (Z=23.60) ---
G1 Z23.600 F900
G10 ; unretract gere par firmware_retraction
G1 X41.000 Y58.000 F9000
G11
G1 X49.000 Y58.000 E0.2993 F1500
G1 X49.000 Y66.000 E0.2993 F1500
G1 X41.000 Y66.000 E0.2993 F1500
G1 X41.000 Y58.000 E0.2993 F1500
G1 X48.550 Y58.450 E0.2657 F1500
G1 X48.550 Y65.550 E0.2657 F1500
G1 X41.450 Y65.550 E0.2657 F1500
G1 X41.450 Y58.450 E0.2657 F1500
G10
G10 ; unretract gere par firmware_retraction
G1 X71.000 Y58.000 F9000
G11
G1 X79.000 Y58.000 E0.2993 F1500
G1 X79.000 Y66.000 E0.2993 F1500
G1 X71.000 Y66.000 E0.2993 F1500
G1 X71.000 Y58.000 E0.2993 F1500
G1 X78.550 Y58.450 E0.2657 F1500
G1 X78.550 Y65.550 E0.2657 F1500
G1 X71.450 Y65.550 E0.2657 F1500
G1 X71.450 Y58.450 E0.2657 F1500
G10
; --- couche 119 / 125 (Z=23.80) ---
G1 Z23.800 F900
G10 ; unretract gere par firmware_retraction
G1 X41.000 Y58.000 F9000
G11
G1 X49.000 Y58.000 E0.2993 F1500
G1 X49.000 Y66.000 E0.2993 F1500
G1 X41.000 Y66.000 E0.2993 F1500
G1 X41.000 Y58.000 E0.2993 F1500
G1 X48.550 Y58.450 E0.2657 F1500
G1 X48.550 Y65.550 E0.2657 F1500
G1 X41.450 Y65.550 E0.2657 F1500
G1 X41.450 Y58.450 E0.2657 F1500
G10
G10 ; unretract gere par firmware_retraction
G1 X71.000 Y58.000 F9000
G11
G1 X79.000 Y58.000 E0.2993 F1500
G1 X79.000 Y66.000 E0.2993 F1500
G1 X71.000 Y66.000 E0.2993 F1500
G1 X71.000 Y58.000 E0.2993 F1500
G1 X78.550 Y58.450 E0.2657 F1500
G1 X78.550 Y65.550 E0.2657 F1500
G1 X71.450 Y65.550 E0.2657 F1500
G1 X71.450 Y58.450 E0.2657 F1500
G10
; --- couche 120 / 125 (Z=24.00) ---
G1 Z24.000 F900
G10 ; unretract gere par firmware_retraction
G1 X41.000 Y58.000 F9000
G11
G1 X49.000 Y58.000 E0.2993 F1500
G1 X49.000 Y66.000 E0.2993 F1500
G1 X41.000 Y66.000 E0.2993 F1500
G1 X41.000 Y58.000 E0.2993 F1500
G1 X48.550 Y58.450 E0.2657 F1500
G1 X48.550 Y65.550 E0.2657 F1500
G1 X41.450 Y65.550 E0.2657 F1500
G1 X41.450 Y58.450 E0.2657 F1500
G10
G10 ; unretract gere par firmware_retraction
G1 X71.000 Y58.000 F9000
G11
G1 X79.000 Y58.000 E0.2993 F1500
G1 X79.000 Y66.000 E0.2993 F1500
G1 X71.000 Y66.000 E0.2993 F1500
G1 X71.000 Y58.000 E0.2993 F1500
G1 X78.550 Y58.450 E0.2657 F1500
G1 X78.550 Y65.550 E0.2657 F1500
G1 X71.450 Y65.550 E0.2657 F1500
G1 X71.450 Y58.450 E0.2657 F1500
G10
; --- couche 121 / 125 (Z=24.20) ---
G1 Z24.200 F900
G10 ; unretract gere par firmware_retraction
G1 X41.000 Y58.000 F9000
G11
G1 X49.000 Y58.000 E0.2993 F1500
G1 X49.000 Y66.000 E0.2993 F1500
G1 X41.000 Y66.000 E0.2993 F1500
G1 X41.000 Y58.000 E0.2993 F1500
G1 X48.550 Y58.450 E0.2657 F1500
G1 X48.550 Y65.550 E0.2657 F1500
G1 X41.450 Y65.550 E0.2657 F1500
G1 X41.450 Y58.450 E0.2657 F1500
G10
G10 ; unretract gere par firmware_retraction
G1 X71.000 Y58.000 F9000
G11
G1 X79.000 Y58.000 E0.2993 F1500
G1 X79.000 Y66.000 E0.2993 F1500
G1 X71.000 Y66.000 E0.2993 F1500
G1 X71.000 Y58.000 E0.2993 F1500
G1 X78.550 Y58.450 E0.2657 F1500
G1 X78.550 Y65.550 E0.2657 F1500
G1 X71.450 Y65.550 E0.2657 F1500
G1 X71.450 Y58.450 E0.2657 F1500
G10
; --- couche 122 / 125 (Z=24.40) ---
G1 Z24.400 F900
G10 ; unretract gere par firmware_retraction
G1 X41.000 Y58.000 F9000
G11
G1 X49.000 Y58.000 E0.2993 F1500
G1 X49.000 Y66.000 E0.2993 F1500
G1 X41.000 Y66.000 E0.2993 F1500
G1 X41.000 Y58.000 E0.2993 F1500
G1 X48.550 Y58.450 E0.2657 F1500
G1 X48.550 Y65.550 E0.2657 F1500
G1 X41.450 Y65.550 E0.2657 F1500
G1 X41.450 Y58.450 E0.2657 F1500
G10
G10 ; unretract gere par firmware_retraction
G1 X71.000 Y58.000 F9000
G11
G1 X79.000 Y58.000 E0.2993 F1500
G1 X79.000 Y66.000 E0.2993 F1500
G1 X71.000 Y66.000 E0.2993 F1500
G1 X71.000 Y58.000 E0.2993 F1500
G1 X78.550 Y58.450 E0.2657 F1500
G1 X78.550 Y65.550 E0.2657 F1500
G1 X71.450 Y65.550 E0.2657 F1500
G1 X71.450 Y58.450 E0.2657 F1500
G10
; --- couche 123 / 125 (Z=24.60) ---
G1 Z24.600 F900
G10 ; unretract gere par firmware_retraction
G1 X41.000 Y58.000 F9000
G11
G1 X49.000 Y58.000 E0.2993 F1500
G1 X49.000 Y66.000 E0.2993 F1500
G1 X41.000 Y66.000 E0.2993 F1500
G1 X41.000 Y58.000 E0.2993 F1500
G1 X48.550 Y58.450 E0.2657 F1500
G1 X48.550 Y65.550 E0.2657 F1500
G1 X41.450 Y65.550 E0.2657 F1500
G1 X41.450 Y58.450 E0.2657 F1500
G10
G10 ; unretract gere par firmware_retraction
G1 X71.000 Y58.000 F9000
G11
G1 X79.000 Y58.000 E0.2993 F1500
G1 X79.000 Y66.000 E0.2993 F1500
G1 X71.000 Y66.000 E0.2993 F1500
G1 X71.000 Y58.000 E0.2993 F1500
G1 X78.550 Y58.450 E0.2657 F1500
G1 X78.550 Y65.550 E0.2657 F1500
G1 X71.450 Y65.550 E0.2657 F1500
G1 X71.450 Y58.450 E0.2657 F1500
G10
; --- couche 124 / 125 (Z=24.80) ---
G1 Z24.800 F900
G10 ; unretract gere par firmware_retraction
G1 X41.000 Y58.000 F9000
G11
G1 X49.000 Y58.000 E0.2993 F1500
G1 X49.000 Y66.000 E0.2993 F1500
G1 X41.000 Y66.000 E0.2993 F1500
G1 X41.000 Y58.000 E0.2993 F1500
G1 X48.550 Y58.450 E0.2657 F1500
G1 X48.550 Y65.550 E0.2657 F1500
G1 X41.450 Y65.550 E0.2657 F1500
G1 X41.450 Y58.450 E0.2657 F1500
G10
G10 ; unretract gere par firmware_retraction
G1 X71.000 Y58.000 F9000
G11
G1 X79.000 Y58.000 E0.2993 F1500
G1 X79.000 Y66.000 E0.2993 F1500
G1 X71.000 Y66.000 E0.2993 F1500
G1 X71.000 Y58.000 E0.2993 F1500
G1 X78.550 Y58.450 E0.2657 F1500
G1 X78.550 Y65.550 E0.2657 F1500
G1 X71.450 Y65.550 E0.2657 F1500
G1 X71.450 Y58.450 E0.2657 F1500
G10
; --- couche 125 / 125 (Z=25.00) ---
G1 Z25.000 F900
G10 ; unretract gere par firmware_retraction
G1 X41.000 Y58.000 F9000
G11
G1 X49.000 Y58.000 E0.2993 F1500
G1 X49.000 Y66.000 E0.2993 F1500
G1 X41.000 Y66.000 E0.2993 F1500
G1 X41.000 Y58.000 E0.2993 F1500
G1 X48.550 Y58.450 E0.2657 F1500
G1 X48.550 Y65.550 E0.2657 F1500
G1 X41.450 Y65.550 E0.2657 F1500
G1 X41.450 Y58.450 E0.2657 F1500
G10
G10 ; unretract gere par firmware_retraction
G1 X71.000 Y58.000 F9000
G11
G1 X79.000 Y58.000 E0.2993 F1500
G1 X79.000 Y66.000 E0.2993 F1500
G1 X71.000 Y66.000 E0.2993 F1500
G1 X71.000 Y58.000 E0.2993 F1500
G1 X78.550 Y58.450 E0.2657 F1500
G1 X78.550 Y65.550 E0.2657 F1500
G1 X71.450 Y65.550 E0.2657 F1500
G1 X71.450 Y58.450 E0.2657 F1500
G10
; --- fin ---
G1 E-2 F2100
G1 Z40 F900 ; degage le plateau
M104 S0
M140 S0
M107
M84

